{"type":"FeatureCollection","name":"sanierung","crs":{"type":"name","properties":{"name":"urn:ogc:def:crs:OGC:1.3:CRS84"}},"features":[{"type":"Feature","properties":{"addressId":"1","Typ":"Allgemeiner Bestand","Wirtschaftseinheit":"Dominicusstr. 12","PLZ":"10823","Art der Wärmeversorgung":"Gas","Wärmeverbrauch":"406361","Stromverbrauch":"0","Bemerkung":"Stromverbrauch liegt nicht vor"},"geometry":{"type":"Point","coordinates":[13.34604,52.48304]}},{"type":"Feature","properties":{"addressId":"2","Typ":"Allgemeiner Bestand","Wirtschaftseinheit":"Albrecht-Achilles-Str. 61 - 64","PLZ":"10709","Art der Wärmeversorgung":"Fernwärme","Wärmeverbrauch":"638433","Stromverbrauch":"0","Bemerkung":"Stromverbrauch liegt nicht vor"},"geometry":{"type":"Point","coordinates":[13.30388,52.49768]}},{"type":"Feature","properties":{"addressId":"3","Typ":"Allgemeiner Bestand","Wirtschaftseinheit":"Alt-Friedrichsfelde 60","PLZ":"10315","Art der Wärmeversorgung":"Fernwärme,Gas","Wärmeverbrauch":"6892602","Stromverbrauch":"2908133","Bemerkung":""},"geometry":{"type":"Point","coordinates":[13.52556,52.50937]}},{"type":"Feature","properties":{"addressId":"4","Typ":"Allgemeiner Bestand","Wirtschaftseinheit":"Am Köllnischen Park 3 / Rungestraße 29","PLZ":"10179","Art der Wärmeversorgung":"Fernwärme","Wärmeverbrauch":"1374183","Stromverbrauch":"","Bemerkung":""},"geometry":{"type":"Point","coordinates":[13.41572,52.51323]}},{"type":"Feature","properties":{"addressId":"5","Typ":"Allgemeiner Bestand","Wirtschaftseinheit":"An der Urania 4-10","PLZ":"10787","Art der Wärmeversorgung":"Fernwärme","Wärmeverbrauch":"1378939","Stromverbrauch":"","Bemerkung":""},"geometry":{"type":"Point","coordinates":[13.34874,52.50282]}},{"type":"Feature","properties":{"addressId":"6","Typ":"Allgemeiner Bestand","Wirtschaftseinheit":"Auf dem Grat 2 (ehem. Clayallee 138)","PLZ":"14195","Art der Wärmeversorgung":"Gas","Wärmeverbrauch":"406361","Stromverbrauch":"132782","Bemerkung":""},"geometry":{"type":"Point","coordinates":[13.27375,52.4554]}},{"type":"Feature","properties":{"addressId":"7","Typ":"Allgemeiner Bestand","Wirtschaftseinheit":"Belziger Str. 52-58","PLZ":"10823","Art der Wärmeversorgung":"Gas","Wärmeverbrauch":"59699","Stromverbrauch":"","Bemerkung":""},"geometry":{"type":"Point","coordinates":[13.34853,52.48602]}},{"type":"Feature","properties":{"addressId":"8","Typ":"Allgemeiner Bestand","Wirtschaftseinheit":"Bismarckstr. 48","PLZ":"10627","Art der Wärmeversorgung":"Fernwärme","Wärmeverbrauch":"1530921","Stromverbrauch":"342077","Bemerkung":""},"geometry":{"type":"Point","coordinates":[13.30363,52.51165]}},{"type":"Feature","properties":{"addressId":"9","Typ":"Allgemeiner Bestand","Wirtschaftseinheit":"Bredtschneiderstr. 5","PLZ":"14057","Art der Wärmeversorgung":"Fernwärme","Wärmeverbrauch":"822562","Stromverbrauch":"226551","Bemerkung":""},"geometry":{"type":"Point","coordinates":[13.28079,52.50886]}},{"type":"Feature","properties":{"addressId":"10","Typ":"Allgemeiner Bestand","Wirtschaftseinheit":"Brodauer Str. 16-22","PLZ":"12621","Art der Wärmeversorgung":"Gas","Wärmeverbrauch":"70372","Stromverbrauch":"20000","Bemerkung":""},"geometry":{"type":"Point","coordinates":[13.58356,52.50918]}},{"type":"Feature","properties":{"addressId":"11","Typ":"Allgemeiner Bestand","Wirtschaftseinheit":"Brunnenstr. 188-190","PLZ":"10119","Art der Wärmeversorgung":"Gas","Wärmeverbrauch":"1713553","Stromverbrauch":"","Bemerkung":""},"geometry":{"type":"Point","coordinates":[13.40006,52.53085]}},{"type":"Feature","properties":{"addressId":"12","Typ":"Allgemeiner Bestand","Wirtschaftseinheit":"Bundesallee 171","PLZ":"10715","Art der Wärmeversorgung":"Fernwärme,Öl","Wärmeverbrauch":"3317323","Stromverbrauch":"","Bemerkung":""},"geometry":{"type":"Point","coordinates":[13.33149,52.48486]}},{"type":"Feature","properties":{"addressId":"13","Typ":"Allgemeiner Bestand","Wirtschaftseinheit":"Buschkrugallee 95","PLZ":"12359","Art der Wärmeversorgung":"Gas","Wärmeverbrauch":"502685","Stromverbrauch":"25359","Bemerkung":""},"geometry":{"type":"Point","coordinates":[13.4507,52.4555]}},{"type":"Feature","properties":{"addressId":"14","Typ":"Allgemeiner Bestand","Wirtschaftseinheit":"Eichborndamm 208","PLZ":"13403","Art der Wärmeversorgung":"Fernwärme,Öl","Wärmeverbrauch":"921333","Stromverbrauch":"341753","Bemerkung":""},"geometry":{"type":"Point","coordinates":[13.32487,52.58719]}},{"type":"Feature","properties":{"addressId":"16","Typ":"Allgemeiner Bestand","Wirtschaftseinheit":"Ferdinand-Schultze-Str. 55","PLZ":"13055","Art der Wärmeversorgung":"Fernwärme","Wärmeverbrauch":"559315","Stromverbrauch":"191512","Bemerkung":""},"geometry":{"type":"Point","coordinates":[13.51049,52.53981]}},{"type":"Feature","properties":{"addressId":"17","Typ":"Allgemeiner Bestand","Wirtschaftseinheit":"Friedrich-Krause-Ufer 24,25","PLZ":"13353","Art der Wärmeversorgung":"Gas,Öl","Wärmeverbrauch":"1841599","Stromverbrauch":"317962","Bemerkung":""},"geometry":{"type":"Point","coordinates":[13.35483,52.53796]}},{"type":"Feature","properties":{"addressId":"18","Typ":"Allgemeiner Bestand","Wirtschaftseinheit":"Friedrichstr. 219","PLZ":"10969","Art der Wärmeversorgung":"Fernwärme","Wärmeverbrauch":"1468400","Stromverbrauch":"","Bemerkung":""},"geometry":{"type":"Point","coordinates":[13.39056,52.50501]}},{"type":"Feature","properties":{"addressId":"19","Typ":"Allgemeiner Bestand","Wirtschaftseinheit":"Fröbelstr. 15","PLZ":"10405","Art der Wärmeversorgung":"n/a","Wärmeverbrauch":"2039980","Stromverbrauch":"0","Bemerkung":"Stromverbrauch liegt nicht vor"},"geometry":{"type":"Point","coordinates":[13.42896,52.53986]}},{"type":"Feature","properties":{"addressId":"20","Typ":"Allgemeiner Bestand","Wirtschaftseinheit":"Fröbelstr. 17","PLZ":"10405","Art der Wärmeversorgung":"Fernwärme","Wärmeverbrauch":"3865371","Stromverbrauch":"974381","Bemerkung":""},"geometry":{"type":"Point","coordinates":[13.42734,52.5405]}},{"type":"Feature","properties":{"addressId":"21","Typ":"Allgemeiner Bestand","Wirtschaftseinheit":"Hanna-Renate-Laurien-Platz 1","PLZ":"12247","Art der Wärmeversorgung":"Gas","Wärmeverbrauch":"0","Stromverbrauch":"186863","Bemerkung":"Wärmeverbrauch liegt nicht vor"},"geometry":{"type":"Point","coordinates":[13.34354,52.43851]}},{"type":"Feature","properties":{"addressId":"22","Typ":"Allgemeiner Bestand","Wirtschaftseinheit":"Hartmannsweilerweg 63","PLZ":"14163","Art der Wärmeversorgung":"Gas","Wärmeverbrauch":"337628","Stromverbrauch":"405037","Bemerkung":""},"geometry":{"type":"Point","coordinates":[13.24769,52.44467]}},{"type":"Feature","properties":{"addressId":"23","Typ":"Allgemeiner Bestand","Wirtschaftseinheit":"Havelchaussee 149-151","PLZ":"14055","Art der Wärmeversorgung":"Gas","Wärmeverbrauch":"2865","Stromverbrauch":"824","Bemerkung":""},"geometry":{"type":"Point","coordinates":[13.21555,52.50974]}},{"type":"Feature","properties":{"addressId":"24","Typ":"Allgemeiner Bestand","Wirtschaftseinheit":"Invalidenstr. 60","PLZ":"10557","Art der Wärmeversorgung":"Fernwärme,Öl","Wärmeverbrauch":"167238","Stromverbrauch":"244526","Bemerkung":""},"geometry":{"type":"Point","coordinates":[13.3648,52.52477]}},{"type":"Feature","properties":{"addressId":"25","Typ":"Allgemeiner Bestand","Wirtschaftseinheit":"Josef-Orlopp-Str. 62","PLZ":"10365","Art der Wärmeversorgung":"Gas","Wärmeverbrauch":"590858","Stromverbrauch":"0","Bemerkung":"Stromverbrauch liegt nicht vor"},"geometry":{"type":"Point","coordinates":[13.49146,52.52289]}},{"type":"Feature","properties":{"addressId":"26","Typ":"Allgemeiner Bestand","Wirtschaftseinheit":"Jüdenstr. 1","PLZ":"10178","Art der Wärmeversorgung":"Fernwärme,Öl","Wärmeverbrauch":"2170561","Stromverbrauch":"","Bemerkung":""},"geometry":{"type":"Point","coordinates":[13.40907,52.51853]}},{"type":"Feature","properties":{"addressId":"27","Typ":"Allgemeiner Bestand","Wirtschaftseinheit":"Juliusstr. 67","PLZ":"12051","Art der Wärmeversorgung":"Gas","Wärmeverbrauch":"341227","Stromverbrauch":"4215","Bemerkung":""},"geometry":{"type":"Point","coordinates":[13.44232,52.46393]}},{"type":"Feature","properties":{"addressId":"28","Typ":"Allgemeiner Bestand","Wirtschaftseinheit":"Karl-Hofer-Str. 31","PLZ":"14163","Art der Wärmeversorgung":"n/a","Wärmeverbrauch":"0","Stromverbrauch":"2908133","Bemerkung":"Wärmeverbrauch liegt nicht vor"},"geometry":{"type":"Point","coordinates":[13.23718,52.43868]}},{"type":"Feature","properties":{"addressId":"29","Typ":"Allgemeiner Bestand","Wirtschaftseinheit":"Klosterstr. 47","PLZ":"10179","Art der Wärmeversorgung":"Fernwärme","Wärmeverbrauch":"2924809","Stromverbrauch":"","Bemerkung":""},"geometry":{"type":"Point","coordinates":[13.41219,52.51655]}},{"type":"Feature","properties":{"addressId":"30","Typ":"Allgemeiner Bestand","Wirtschaftseinheit":"Klosterstr. 59","PLZ":"10179","Art der Wärmeversorgung":"Fernwärme","Wärmeverbrauch":"1517443","Stromverbrauch":"","Bemerkung":""},"geometry":{"type":"Point","coordinates":[13.41247,52.51533]}},{"type":"Feature","properties":{"addressId":"31","Typ":"Allgemeiner Bestand","Wirtschaftseinheit":"Klosterstr. 71","PLZ":"10179","Art der Wärmeversorgung":"Fernwärme","Wärmeverbrauch":"556624","Stromverbrauch":"162348","Bemerkung":""},"geometry":{"type":"Point","coordinates":[13.41235,52.5179]}},{"type":"Feature","properties":{"addressId":"32","Typ":"Allgemeiner Bestand","Wirtschaftseinheit":"Kniprodestr. 31","PLZ":"10407","Art der Wärmeversorgung":"Fernwärme","Wärmeverbrauch":"0","Stromverbrauch":"365697","Bemerkung":"Wärmeverbrauch liegt nicht vor"},"geometry":{"type":"Point","coordinates":[13.44714,52.53435]}},{"type":"Feature","properties":{"addressId":"33","Typ":"Allgemeiner Bestand","Wirtschaftseinheit":"Levetzowstr. 1-2","PLZ":"10555","Art der Wärmeversorgung":"Gas","Wärmeverbrauch":"453878","Stromverbrauch":"102019","Bemerkung":""},"geometry":{"type":"Point","coordinates":[13.33061,52.52229]}},{"type":"Feature","properties":{"addressId":"34","Typ":"Allgemeiner Bestand","Wirtschaftseinheit":"Magdalenenstr. 25","PLZ":"10365","Art der Wärmeversorgung":"Fernwärme","Wärmeverbrauch":"1607040","Stromverbrauch":"302813","Bemerkung":""},"geometry":{"type":"Point","coordinates":[13.48867,52.51487]}},{"type":"Feature","properties":{"addressId":"35","Typ":"Allgemeiner Bestand","Wirtschaftseinheit":"Martin-Buber-Str. 20,21","PLZ":"14163","Art der Wärmeversorgung":"Gas","Wärmeverbrauch":"1068902","Stromverbrauch":"169534","Bemerkung":""},"geometry":{"type":"Point","coordinates":[13.25658,52.43419]}},{"type":"Feature","properties":{"addressId":"36","Typ":"Allgemeiner Bestand","Wirtschaftseinheit":"Martin-Luther-Str. 105","PLZ":"10825","Art der Wärmeversorgung":"Fernwärme","Wärmeverbrauch":"1633743","Stromverbrauch":"632594","Bemerkung":""},"geometry":{"type":"Point","coordinates":[13.34536,52.48327]}},{"type":"Feature","properties":{"addressId":"37","Typ":"Allgemeiner Bestand","Wirtschaftseinheit":"Max-Brunnow-Str. 4","PLZ":"10369","Art der Wärmeversorgung":"Fernwärme","Wärmeverbrauch":"427181","Stromverbrauch":"115822","Bemerkung":""},"geometry":{"type":"Point","coordinates":[13.45988,52.52621]}},{"type":"Feature","properties":{"addressId":"38","Typ":"Allgemeiner Bestand","Wirtschaftseinheit":"Mehringdamm 110","PLZ":"10965","Art der Wärmeversorgung":"Gas","Wärmeverbrauch":"999879","Stromverbrauch":"128908","Bemerkung":""},"geometry":{"type":"Point","coordinates":[13.38555,52.48735]}},{"type":"Feature","properties":{"addressId":"39","Typ":"Allgemeiner Bestand","Wirtschaftseinheit":"Mehringdamm 22","PLZ":"10961","Art der Wärmeversorgung":"Gas","Wärmeverbrauch":"689164","Stromverbrauch":"57606","Bemerkung":""},"geometry":{"type":"Point","coordinates":[13.38861,52.49475]}},{"type":"Feature","properties":{"addressId":"40","Typ":"Allgemeiner Bestand","Wirtschaftseinheit":"Mohriner Allee 137","PLZ":"12347","Art der Wärmeversorgung":"Gas","Wärmeverbrauch":"1870171","Stromverbrauch":"352164","Bemerkung":""},"geometry":{"type":"Point","coordinates":[13.41438,52.43902]}},{"type":"Feature","properties":{"addressId":"41","Typ":"Allgemeiner Bestand","Wirtschaftseinheit":"Munsterdamm 90 / Planetarium und Sternwarte","PLZ":"12169","Art der Wärmeversorgung":"Gas","Wärmeverbrauch":"139231","Stromverbrauch":"112694","Bemerkung":""},"geometry":{"type":"Point","coordinates":[13.34918,52.45769]}},{"type":"Feature","properties":{"addressId":"42","Typ":"Allgemeiner Bestand","Wirtschaftseinheit":"Nonnendammallee 21","PLZ":"13599","Art der Wärmeversorgung":"Fernwärme","Wärmeverbrauch":"1160193","Stromverbrauch":"","Bemerkung":""},"geometry":{"type":"Point","coordinates":[13.23837,52.53872]}},{"type":"Feature","properties":{"addressId":"43","Typ":"Allgemeiner Bestand","Wirtschaftseinheit":"Oranienstr. 106","PLZ":"10969","Art der Wärmeversorgung":"Fernwärme","Wärmeverbrauch":"1762711","Stromverbrauch":"","Bemerkung":""},"geometry":{"type":"Point","coordinates":[13.40053,52.50628]}},{"type":"Feature","properties":{"addressId":"44","Typ":"Allgemeiner Bestand","Wirtschaftseinheit":"Osloer Str. 37","PLZ":"13359","Art der Wärmeversorgung":"Gas","Wärmeverbrauch":"1521622","Stromverbrauch":"145695","Bemerkung":""},"geometry":{"type":"Point","coordinates":[13.3741,52.55707]}},{"type":"Feature","properties":{"addressId":"45","Typ":"Allgemeiner Bestand","Wirtschaftseinheit":"Otto-Braun-Str. 70-72 (Haus d. Statistik)","PLZ":"10178","Art der Wärmeversorgung":"n/a","Wärmeverbrauch":"61967","Stromverbrauch":"17151","Bemerkung":""},"geometry":{"type":"Point","coordinates":[13.41864,52.52314]}},{"type":"Feature","properties":{"addressId":"46","Typ":"Allgemeiner Bestand","Wirtschaftseinheit":"Parochialstr. 1-3","PLZ":"10179","Art der Wärmeversorgung":"Fernwärme","Wärmeverbrauch":"831083","Stromverbrauch":"","Bemerkung":""},"geometry":{"type":"Point","coordinates":[13.41069,52.51716]}},{"type":"Feature","properties":{"addressId":"47","Typ":"Allgemeiner Bestand","Wirtschaftseinheit":"Potsdamer Str. 140","PLZ":"10783","Art der Wärmeversorgung":"Fernwärme","Wärmeverbrauch":"513315","Stromverbrauch":"198235","Bemerkung":""},"geometry":{"type":"Point","coordinates":[13.36189,52.4982]}},{"type":"Feature","properties":{"addressId":"48","Typ":"Allgemeiner Bestand","Wirtschaftseinheit":"Potsdamer Str. 186","PLZ":"10783","Art der Wärmeversorgung":"Öl","Wärmeverbrauch":"","Stromverbrauch":"987","Bemerkung":""},"geometry":{"type":"Point","coordinates":[13.36065,52.4929]}},{"type":"Feature","properties":{"addressId":"49","Typ":"Allgemeiner Bestand","Wirtschaftseinheit":"Potsdamer Str. 61-65","PLZ":"10785","Art der Wärmeversorgung":"Fernwärme","Wärmeverbrauch":"","Stromverbrauch":"85919","Bemerkung":""},"geometry":{"type":"Point","coordinates":[13.36707,52.50411]}},{"type":"Feature","properties":{"addressId":"50","Typ":"Allgemeiner Bestand","Wirtschaftseinheit":"Rubensstr. 111","PLZ":"12157","Art der Wärmeversorgung":"Fernwärme","Wärmeverbrauch":"483999","Stromverbrauch":"234894","Bemerkung":""},"geometry":{"type":"Point","coordinates":[13.34484,52.46447]}},{"type":"Feature","properties":{"addressId":"51","Typ":"Allgemeiner Bestand","Wirtschaftseinheit":"Salzburger Str. 21-25","PLZ":"10825","Art der Wärmeversorgung":"Fernwärme","Wärmeverbrauch":"1588617","Stromverbrauch":"396439","Bemerkung":""},"geometry":{"type":"Point","coordinates":[13.34327,52.48577]}},{"type":"Feature","properties":{"addressId":"52","Typ":"Allgemeiner Bestand","Wirtschaftseinheit":"Sarrazinstr. 4","PLZ":"12159","Art der Wärmeversorgung":"Gas","Wärmeverbrauch":"613","Stromverbrauch":"535","Bemerkung":""},"geometry":{"type":"Point","coordinates":[13.33176,52.47533]}},{"type":"Feature","properties":{"addressId":"53","Typ":"Allgemeiner Bestand","Wirtschaftseinheit":"Schloßstr. 58,59","PLZ":"12165","Art der Wärmeversorgung":"Gas","Wärmeverbrauch":"632064","Stromverbrauch":"276273","Bemerkung":""},"geometry":{"type":"Point","coordinates":[13.31297,52.45322]}},{"type":"Feature","properties":{"addressId":"54","Typ":"Allgemeiner Bestand","Wirtschaftseinheit":"Seelenbinderstr. 99","PLZ":"12555","Art der Wärmeversorgung":"Gas","Wärmeverbrauch":"1281267","Stromverbrauch":"156171","Bemerkung":""},"geometry":{"type":"Point","coordinates":[13.58868,52.45565]}},{"type":"Feature","properties":{"addressId":"55","Typ":"Allgemeiner Bestand","Wirtschaftseinheit":"Storkower Str. 134","PLZ":"10407","Art der Wärmeversorgung":"Fernwärme","Wärmeverbrauch":"1514950","Stromverbrauch":"0","Bemerkung":"Stromverbrauch liegt nicht vor"},"geometry":{"type":"Point","coordinates":[13.45231,52.53267]}},{"type":"Feature","properties":{"addressId":"56","Typ":"Allgemeiner Bestand","Wirtschaftseinheit":"Storkower Str. 97","PLZ":"10407","Art der Wärmeversorgung":"Fernwärme","Wärmeverbrauch":"489706","Stromverbrauch":"128666","Bemerkung":""},"geometry":{"type":"Point","coordinates":[13.45077,52.53684]}},{"type":"Feature","properties":{"addressId":"57","Typ":"Allgemeiner Bestand","Wirtschaftseinheit":"Straßburger Str. 56","PLZ":"10405","Art der Wärmeversorgung":"Öl","Wärmeverbrauch":"784699","Stromverbrauch":"","Bemerkung":""},"geometry":{"type":"Point","coordinates":[13.41269,52.52921]}},{"type":"Feature","properties":{"addressId":"58","Typ":"Allgemeiner Bestand","Wirtschaftseinheit":"Tempelhofer Damm 234","PLZ":"12099","Art der Wärmeversorgung":"Gas","Wärmeverbrauch":"535285","Stromverbrauch":"251986","Bemerkung":""},"geometry":{"type":"Point","coordinates":[13.38372,52.45435]}},{"type":"Feature","properties":{"addressId":"59","Typ":"Allgemeiner Bestand","Wirtschaftseinheit":"Turmstr. 21","PLZ":"10559","Art der Wärmeversorgung":"Fernwärme","Wärmeverbrauch":"9587800","Stromverbrauch":"","Bemerkung":""},"geometry":{"type":"Point","coordinates":[13.34785,52.52642]}},{"type":"Feature","properties":{"addressId":"60","Typ":"Allgemeiner Bestand","Wirtschaftseinheit":"Turmstr. 22","PLZ":"10559","Art der Wärmeversorgung":"Fernwärme,Öl","Wärmeverbrauch":"32713","Stromverbrauch":"271383","Bemerkung":""},"geometry":{"type":"Point","coordinates":[13.34715,52.52641]}},{"type":"Feature","properties":{"addressId":"61","Typ":"Allgemeiner Bestand","Wirtschaftseinheit":"Turmstr. 86","PLZ":"10559","Art der Wärmeversorgung":"Fernwärme,Öl","Wärmeverbrauch":"617923","Stromverbrauch":"","Bemerkung":""},"geometry":{"type":"Point","coordinates":[13.34967,52.52609]}},{"type":"Feature","properties":{"addressId":"62","Typ":"externe Mieter","Wirtschaftseinheit":"Müllerstr. 147","PLZ":"13353","Art der Wärmeversorgung":"Fernwärme","Wärmeverbrauch":"437693","Stromverbrauch":"706979","Bemerkung":""},"geometry":{"type":"Point","coordinates":[13.35659,52.54686]}},{"type":"Feature","properties":{"addressId":"63","Typ":"externe Mieter","Wirtschaftseinheit":"Neue Jakobstr. 9","PLZ":"10249","Art der Wärmeversorgung":"Fernwärme","Wärmeverbrauch":"0","Stromverbrauch":"342077","Bemerkung":"Wärmeverbrauch liegt nicht vor"},"geometry":{"type":"Point","coordinates":[13.41131,52.51118]}},{"type":"Feature","properties":{"addressId":"64","Typ":"Feuerwehr","Wirtschaftseinheit":"Adlergestell 782","PLZ":"12527","Art der Wärmeversorgung":"Öl","Wärmeverbrauch":"4189","Stromverbrauch":"4545","Bemerkung":""},"geometry":{"type":"Point","coordinates":[13.64848,52.37579]}},{"type":"Feature","properties":{"addressId":"65","Typ":"Feuerwehr","Wirtschaftseinheit":"Alt-Biesdorf 58","PLZ":"12683","Art der Wärmeversorgung":"Gas","Wärmeverbrauch":"178289","Stromverbrauch":"25875","Bemerkung":""},"geometry":{"type":"Point","coordinates":[13.55629,52.50925]}},{"type":"Feature","properties":{"addressId":"66","Typ":"Feuerwehr","Wirtschaftseinheit":"Alt-Blankenburg 9","PLZ":"13129","Art der Wärmeversorgung":"Gas","Wärmeverbrauch":"130266","Stromverbrauch":"25078","Bemerkung":""},"geometry":{"type":"Point","coordinates":[13.45198,52.59295]}},{"type":"Feature","properties":{"addressId":"67","Typ":"Feuerwehr","Wirtschaftseinheit":"Alt-Heiligensee 68","PLZ":"13503","Art der Wärmeversorgung":"Öl","Wärmeverbrauch":"43321","Stromverbrauch":"","Bemerkung":""},"geometry":{"type":"Point","coordinates":[13.21129,52.6067]}},{"type":"Feature","properties":{"addressId":"68","Typ":"Feuerwehr","Wirtschaftseinheit":"Alt-Karow 10,11","PLZ":"13125","Art der Wärmeversorgung":"Gas","Wärmeverbrauch":"189299","Stromverbrauch":"52573","Bemerkung":""},"geometry":{"type":"Point","coordinates":[13.48301,52.61099]}},{"type":"Feature","properties":{"addressId":"69","Typ":"Feuerwehr","Wirtschaftseinheit":"Alt-Lübars 12","PLZ":"13469","Art der Wärmeversorgung":"Gas","Wärmeverbrauch":"28915","Stromverbrauch":"304686","Bemerkung":""},"geometry":{"type":"Point","coordinates":[13.35809,52.62078]}},{"type":"Feature","properties":{"addressId":"70","Typ":"Feuerwehr","Wirtschaftseinheit":"Alt-Rudow 67,69","PLZ":"12355","Art der Wärmeversorgung":"Gas","Wärmeverbrauch":"159304","Stromverbrauch":"28547","Bemerkung":""},"geometry":{"type":"Point","coordinates":[13.49685,52.41698]}},{"type":"Feature","properties":{"addressId":"71","Typ":"Feuerwehr","Wirtschaftseinheit":"Berliner Str. 16","PLZ":"13507","Art der Wärmeversorgung":"Gas","Wärmeverbrauch":"221948","Stromverbrauch":"83681","Bemerkung":""},"geometry":{"type":"Point","coordinates":[13.28617,52.58659]}},{"type":"Feature","properties":{"addressId":"72","Typ":"Feuerwehr","Wirtschaftseinheit":"Betckestr. 13","PLZ":"13595","Art der Wärmeversorgung":"Gas","Wärmeverbrauch":"594867","Stromverbrauch":"226551","Bemerkung":""},"geometry":{"type":"Point","coordinates":[13.20456,52.52096]}},{"type":"Feature","properties":{"addressId":"73","Typ":"Feuerwehr","Wirtschaftseinheit":"Blenheimstr. 65,67","PLZ":"12685","Art der Wärmeversorgung":"Fernwärme","Wärmeverbrauch":"112688","Stromverbrauch":"17151","Bemerkung":""},"geometry":{"type":"Point","coordinates":[13.5621,52.5421]}},{"type":"Feature","properties":{"addressId":"74","Typ":"Feuerwehr","Wirtschaftseinheit":"Borussiastr. 16,17","PLZ":"12103","Art der Wärmeversorgung":"Gas","Wärmeverbrauch":"352657","Stromverbrauch":"","Bemerkung":""},"geometry":{"type":"Point","coordinates":[13.38385,52.46697]}},{"type":"Feature","properties":{"addressId":"75","Typ":"Feuerwehr","Wirtschaftseinheit":"Charlottenburger Str. 10,12","PLZ":"14169","Art der Wärmeversorgung":"Gas","Wärmeverbrauch":"752682","Stromverbrauch":"16864","Bemerkung":""},"geometry":{"type":"Point","coordinates":[13.26534,52.43717]}},{"type":"Feature","properties":{"addressId":"77","Typ":"Feuerwehr","Wirtschaftseinheit":"Dönhoffstr. 30,31","PLZ":"10318","Art der Wärmeversorgung":"Gas","Wärmeverbrauch":"295533","Stromverbrauch":"80421","Bemerkung":""},"geometry":{"type":"Point","coordinates":[13.52034,52.48396]}},{"type":"Feature","properties":{"addressId":"78","Typ":"Feuerwehr","Wirtschaftseinheit":"Dorfstr. 4","PLZ":"13059","Art der Wärmeversorgung":"Gas","Wärmeverbrauch":"134623","Stromverbrauch":"18917","Bemerkung":""},"geometry":{"type":"Point","coordinates":[13.5157,52.57475]}},{"type":"Feature","properties":{"addressId":"79","Typ":"Feuerwehr","Wirtschaftseinheit":"Edelweißstr. 35","PLZ":"13158","Art der Wärmeversorgung":"Fernwärme","Wärmeverbrauch":"61585","Stromverbrauch":"2183","Bemerkung":""},"geometry":{"type":"Point","coordinates":[13.37001,52.58582]}},{"type":"Feature","properties":{"addressId":"80","Typ":"Feuerwehr","Wirtschaftseinheit":"Edinburger Str. 7","PLZ":"13349","Art der Wärmeversorgung":"Gas","Wärmeverbrauch":"4858","Stromverbrauch":"5075","Bemerkung":""},"geometry":{"type":"Point","coordinates":[13.35196,52.55372]}},{"type":"Feature","properties":{"addressId":"81","Typ":"Feuerwehr","Wirtschaftseinheit":"Ferdinand-Schultze-Str. 128,130,132","PLZ":"13055","Art der Wärmeversorgung":"Fernwärme","Wärmeverbrauch":"175925","Stromverbrauch":"0","Bemerkung":"Stromverbrauch liegt nicht vor"},"geometry":{"type":"Point","coordinates":[13.50814,52.54505]}},{"type":"Feature","properties":{"addressId":"82","Typ":"Feuerwehr","Wirtschaftseinheit":"Feurigstr. 58","PLZ":"10827","Art der Wärmeversorgung":"Gas","Wärmeverbrauch":"7244","Stromverbrauch":"16864","Bemerkung":""},"geometry":{"type":"Point","coordinates":[13.35675,52.48461]}},{"type":"Feature","properties":{"addressId":"83","Typ":"Feuerwehr","Wirtschaftseinheit":"Frankenbergstr. 23","PLZ":"12589","Art der Wärmeversorgung":"Gas","Wärmeverbrauch":"58609","Stromverbrauch":"10037","Bemerkung":""},"geometry":{"type":"Point","coordinates":[13.71614,52.4367]}},{"type":"Feature","properties":{"addressId":"84","Typ":"Feuerwehr","Wirtschaftseinheit":"Friederikestr. 19","PLZ":"13505","Art der Wärmeversorgung":"Gas","Wärmeverbrauch":"108363","Stromverbrauch":"18041","Bemerkung":""},"geometry":{"type":"Point","coordinates":[13.22891,52.57079]}},{"type":"Feature","properties":{"addressId":"85","Typ":"Feuerwehr","Wirtschaftseinheit":"Fürstenwalder Allee 356","PLZ":"12589","Art der Wärmeversorgung":"n/a","Wärmeverbrauch":"0","Stromverbrauch":"402624","Bemerkung":"Wärmeverbrauch liegt nicht vor"},"geometry":{"type":"Point","coordinates":[13.72222,52.43063]}},{"type":"Feature","properties":{"addressId":"86","Typ":"Feuerwehr","Wirtschaftseinheit":"Gasteiner Str. 19-20","PLZ":"10717","Art der Wärmeversorgung":"Fernwärme","Wärmeverbrauch":"417426","Stromverbrauch":"7115","Bemerkung":""},"geometry":{"type":"Point","coordinates":[13.32045,52.48751]}},{"type":"Feature","properties":{"addressId":"87","Typ":"Feuerwehr","Wirtschaftseinheit":"Gatower Str. 333","PLZ":"14089","Art der Wärmeversorgung":"Pellet","Wärmeverbrauch":"","Stromverbrauch":"20624","Bemerkung":"Wärmeverbrauch liegt nicht vor"},"geometry":{"type":"Point","coordinates":[13.1807,52.4897]}},{"type":"Feature","properties":{"addressId":"88","Typ":"Feuerwehr","Wirtschaftseinheit":"Godbersenstr. 31","PLZ":"12527","Art der Wärmeversorgung":"n/a","Wärmeverbrauch":"0","Stromverbrauch":"5785","Bemerkung":"Wärmeverbrauch liegt nicht vor"},"geometry":{"type":"Point","coordinates":[13.64377,52.37832]}},{"type":"Feature","properties":{"addressId":"89","Typ":"Feuerwehr","Wirtschaftseinheit":"Goethestr. 7","PLZ":"12207","Art der Wärmeversorgung":"Gas","Wärmeverbrauch":"431309","Stromverbrauch":"59948","Bemerkung":""},"geometry":{"type":"Point","coordinates":[13.3155,52.42956]}},{"type":"Feature","properties":{"addressId":"90","Typ":"Feuerwehr","Wirtschaftseinheit":"Gravensteinstr. 9, 4-18","PLZ":"13127","Art der Wärmeversorgung":"Gas","Wärmeverbrauch":"91748","Stromverbrauch":"113676","Bemerkung":""},"geometry":{"type":"Point","coordinates":[13.43607,52.60702]}},{"type":"Feature","properties":{"addressId":"91","Typ":"Feuerwehr","Wirtschaftseinheit":"Groß-Berliner Damm 18","PLZ":"12487","Art der Wärmeversorgung":"Fernwärme/Gas","Wärmeverbrauch":"497181","Stromverbrauch":"","Bemerkung":""},"geometry":{"type":"Point","coordinates":[13.51013,52.45026]}},{"type":"Feature","properties":{"addressId":"92","Typ":"Feuerwehr","Wirtschaftseinheit":"Grunowstr. 18","PLZ":"13187","Art der Wärmeversorgung":"n/a","Wärmeverbrauch":"0","Stromverbrauch":"0","Bemerkung":"Strom- und Wärmeverbrauch liegt nicht vor"},"geometry":{"type":"Point","coordinates":[13.40927,52.56824]}},{"type":"Feature","properties":{"addressId":"93","Typ":"Feuerwehr","Wirtschaftseinheit":"Hackbuschstr. 65","PLZ":"13591","Art der Wärmeversorgung":"Gas","Wärmeverbrauch":"154628","Stromverbrauch":"27136","Bemerkung":""},"geometry":{"type":"Point","coordinates":[13.15055,52.54348]}},{"type":"Feature","properties":{"addressId":"94","Typ":"Feuerwehr","Wirtschaftseinheit":"Hauptstr. 14","PLZ":"13159","Art der Wärmeversorgung":"Gas","Wärmeverbrauch":"75846","Stromverbrauch":"40655","Bemerkung":""},"geometry":{"type":"Point","coordinates":[13.38766,52.61773]}},{"type":"Feature","properties":{"addressId":"95","Typ":"Feuerwehr","Wirtschaftseinheit":"Hausvaterweg 16","PLZ":"13057","Art der Wärmeversorgung":"Gas","Wärmeverbrauch":"199924","Stromverbrauch":"14954","Bemerkung":""},"geometry":{"type":"Point","coordinates":[13.54614,52.56962]}},{"type":"Feature","properties":{"addressId":"96","Typ":"Feuerwehr","Wirtschaftseinheit":"Heinsestr. 24","PLZ":"13467","Art der Wärmeversorgung":"Gas","Wärmeverbrauch":"219039","Stromverbrauch":"93103","Bemerkung":""},"geometry":{"type":"Point","coordinates":[13.30877,52.61538]}},{"type":"Feature","properties":{"addressId":"97","Typ":"Feuerwehr","Wirtschaftseinheit":"Hellersdorfer Str. 143-147","PLZ":"12619","Art der Wärmeversorgung":"Fernwärme","Wärmeverbrauch":"135814","Stromverbrauch":"41511","Bemerkung":""},"geometry":{"type":"Point","coordinates":[13.58962,52.52973]}},{"type":"Feature","properties":{"addressId":"98","Typ":"Feuerwehr","Wirtschaftseinheit":"Im Domstift 22","PLZ":"12309","Art der Wärmeversorgung":"Gas","Wärmeverbrauch":"113912","Stromverbrauch":"4705","Bemerkung":""},"geometry":{"type":"Point","coordinates":[13.41223,52.39247]}},{"type":"Feature","properties":{"addressId":"100","Typ":"Feuerwehr","Wirtschaftseinheit":"Jagowstr. 31","PLZ":"10555","Art der Wärmeversorgung":"Gas","Wärmeverbrauch":"835904","Stromverbrauch":"194627","Bemerkung":""},"geometry":{"type":"Point","coordinates":[13.33369,52.52267]}},{"type":"Feature","properties":{"addressId":"101","Typ":"Feuerwehr","Wirtschaftseinheit":"Johannisthaler Chaussee 222","PLZ":"12351","Art der Wärmeversorgung":"Fernwärme","Wärmeverbrauch":"495168","Stromverbrauch":"84341","Bemerkung":""},"geometry":{"type":"Point","coordinates":[13.46832,52.43419]}},{"type":"Feature","properties":{"addressId":"102","Typ":"Feuerwehr","Wirtschaftseinheit":"Josef-Orlopp-Str. 69","PLZ":"10365","Art der Wärmeversorgung":"Gas","Wärmeverbrauch":"866535","Stromverbrauch":"188791","Bemerkung":""},"geometry":{"type":"Point","coordinates":[13.49285,52.52318]}},{"type":"Feature","properties":{"addressId":"103","Typ":"Feuerwehr","Wirtschaftseinheit":"Katzengraben 1,1a","PLZ":"12555","Art der Wärmeversorgung":"Gas","Wärmeverbrauch":"0","Stromverbrauch":"191582","Bemerkung":"Wärmeverbrauch liegt nicht vor Sanierung 2020"},"geometry":{"type":"Point","coordinates":[13.57904,52.44721]}},{"type":"Feature","properties":{"addressId":"104","Typ":"Feuerwehr","Wirtschaftseinheit":"Kirchhofstr. 20","PLZ":"12051","Art der Wärmeversorgung":"Gas","Wärmeverbrauch":"945806","Stromverbrauch":"","Bemerkung":""},"geometry":{"type":"Point","coordinates":[13.43843,52.46899]}},{"type":"Feature","properties":{"addressId":"105","Typ":"Feuerwehr","Wirtschaftseinheit":"Kladower Damm 367","PLZ":"14089","Art der Wärmeversorgung":"Gas","Wärmeverbrauch":"100671","Stromverbrauch":"","Bemerkung":""},"geometry":{"type":"Point","coordinates":[13.14522,52.45472]}},{"type":"Feature","properties":{"addressId":"106","Typ":"Feuerwehr","Wirtschaftseinheit":"Krampenburger Weg 1,3","PLZ":"12559","Art der Wärmeversorgung":"Gas","Wärmeverbrauch":"89856","Stromverbrauch":"40042","Bemerkung":""},"geometry":{"type":"Point","coordinates":[13.66439,52.41056]}},{"type":"Feature","properties":{"addressId":"107","Typ":"Feuerwehr","Wirtschaftseinheit":"Kronprinzessinnenweg 20","PLZ":"14109","Art der Wärmeversorgung":"Gas","Wärmeverbrauch":"5766","Stromverbrauch":"76458","Bemerkung":""},"geometry":{"type":"Point","coordinates":[13.18465,52.4293]}},{"type":"Feature","properties":{"addressId":"108","Typ":"Feuerwehr","Wirtschaftseinheit":"Kummerower Ring 80","PLZ":"12619","Art der Wärmeversorgung":"Fernwärme","Wärmeverbrauch":"302973","Stromverbrauch":"49352","Bemerkung":""},"geometry":{"type":"Point","coordinates":[13.58242,52.52559]}},{"type":"Feature","properties":{"addressId":"109","Typ":"Feuerwehr","Wirtschaftseinheit":"Linienstr. 128-129","PLZ":"10115","Art der Wärmeversorgung":"Gas","Wärmeverbrauch":"","Stromverbrauch":"28438","Bemerkung":""},"geometry":{"type":"Point","coordinates":[13.38925,52.52658]}},{"type":"Feature","properties":{"addressId":"110","Typ":"Feuerwehr","Wirtschaftseinheit":"Mädewalder Weg 21,23","PLZ":"12621","Art der Wärmeversorgung":"Gas","Wärmeverbrauch":"149564","Stromverbrauch":"13793","Bemerkung":""},"geometry":{"type":"Point","coordinates":[13.58798,52.50686]}},{"type":"Feature","properties":{"addressId":"111","Typ":"Feuerwehr","Wirtschaftseinheit":"Märkische Allee 181, 189","PLZ":"12681","Art der Wärmeversorgung":"Fernwärme","Wärmeverbrauch":"1384520","Stromverbrauch":"239361","Bemerkung":""},"geometry":{"type":"Point","coordinates":[13.53669,52.53499]}},{"type":"Feature","properties":{"addressId":"112","Typ":"Feuerwehr","Wirtschaftseinheit":"Müggelseedamm 178","PLZ":"12587","Art der Wärmeversorgung":"Gas","Wärmeverbrauch":"265124","Stromverbrauch":"40774","Bemerkung":""},"geometry":{"type":"Point","coordinates":[13.62612,52.44657]}},{"type":"Feature","properties":{"addressId":"113","Typ":"Feuerwehr","Wirtschaftseinheit":"Mühlenweg 8","PLZ":"12589","Art der Wärmeversorgung":"Gas","Wärmeverbrauch":"10869","Stromverbrauch":"27421","Bemerkung":""},"geometry":{"type":"Point","coordinates":[13.68963,52.43902]}},{"type":"Feature","properties":{"addressId":"114","Typ":"Feuerwehr","Wirtschaftseinheit":"Nikolaus-Groß-Weg 2","PLZ":"13627","Art der Wärmeversorgung":"Gas","Wärmeverbrauch":"3225868","Stromverbrauch":"2168696","Bemerkung":""},"geometry":{"type":"Point","coordinates":[13.28239,52.53225]}},{"type":"Feature","properties":{"addressId":"115","Typ":"Feuerwehr","Wirtschaftseinheit":"Nöldnerstr. 36","PLZ":"10317","Art der Wärmeversorgung":"Fernwärme","Wärmeverbrauch":"36893","Stromverbrauch":"1016","Bemerkung":""},"geometry":{"type":"Point","coordinates":[13.4839,52.50194]}},{"type":"Feature","properties":{"addressId":"116","Typ":"Feuerwehr","Wirtschaftseinheit":"Oderberger Str. 24,25","PLZ":"10435","Art der Wärmeversorgung":"Gas","Wärmeverbrauch":"427577","Stromverbrauch":"106799","Bemerkung":""},"geometry":{"type":"Point","coordinates":[13.40667,52.53991]}},{"type":"Feature","properties":{"addressId":"117","Typ":"Feuerwehr","Wirtschaftseinheit":"Pablo-Picasso-Str. ggü. 49","PLZ":"13057","Art der Wärmeversorgung":"Fernwärme","Wärmeverbrauch":"984462","Stromverbrauch":"173553","Bemerkung":""},"geometry":{"type":"Point","coordinates":[13.52684,52.55745]}},{"type":"Feature","properties":{"addressId":"118","Typ":"Feuerwehr","Wirtschaftseinheit":"Parkstr. 38-39","PLZ":"13086","Art der Wärmeversorgung":"Gas","Wärmeverbrauch":"618161","Stromverbrauch":"66959","Bemerkung":""},"geometry":{"type":"Point","coordinates":[13.45975,52.55644]}},{"type":"Feature","properties":{"addressId":"119","Typ":"Feuerwehr","Wirtschaftseinheit":"Pasewalker Str. 120","PLZ":"13127","Art der Wärmeversorgung":"Fernwärme","Wärmeverbrauch":"154849","Stromverbrauch":"18959","Bemerkung":""},"geometry":{"type":"Point","coordinates":[13.42898,52.58217]}},{"type":"Feature","properties":{"addressId":"120","Typ":"Feuerwehr","Wirtschaftseinheit":"Paulsternstr. 34","PLZ":"13629","Art der Wärmeversorgung":"Fernwärme","Wärmeverbrauch":"113982","Stromverbrauch":"1131","Bemerkung":""},"geometry":{"type":"Point","coordinates":[13.24789,52.54397]}},{"type":"Feature","properties":{"addressId":"121","Typ":"Feuerwehr","Wirtschaftseinheit":"Pölnitzweg 3,5","PLZ":"13125","Art der Wärmeversorgung":"Fernwärme","Wärmeverbrauch":"162999","Stromverbrauch":"2173","Bemerkung":""},"geometry":{"type":"Point","coordinates":[13.50217,52.63749]}},{"type":"Feature","properties":{"addressId":"122","Typ":"Feuerwehr","Wirtschaftseinheit":"Rankestr. 10-12","PLZ":"10789","Art der Wärmeversorgung":"Fernwärme","Wärmeverbrauch":"512742","Stromverbrauch":"57606","Bemerkung":""},"geometry":{"type":"Point","coordinates":[13.33263,52.50175]}},{"type":"Feature","properties":{"addressId":"123","Typ":"Feuerwehr","Wirtschaftseinheit":"Rathausstr. 70,72","PLZ":"12105","Art der Wärmeversorgung":" Gas/Fernwärme","Wärmeverbrauch":"478349","Stromverbrauch":"61031","Bemerkung":""},"geometry":{"type":"Point","coordinates":[13.38029,52.44392]}},{"type":"Feature","properties":{"addressId":"124","Typ":"Feuerwehr","Wirtschaftseinheit":"Reinickendorfer Str. 15a-15c","PLZ":"13347","Art der Wärmeversorgung":"Fernwärme","Wärmeverbrauch":"577604","Stromverbrauch":"68123","Bemerkung":""},"geometry":{"type":"Point","coordinates":[13.37,52.54328]}},{"type":"Feature","properties":{"addressId":"125","Typ":"Feuerwehr","Wirtschaftseinheit":"Remstaler Str. 9","PLZ":"13465","Art der Wärmeversorgung":"Gas","Wärmeverbrauch":"46532","Stromverbrauch":"25359","Bemerkung":""},"geometry":{"type":"Point","coordinates":[13.30121,52.63694]}},{"type":"Feature","properties":{"addressId":"126","Typ":"Feuerwehr","Wirtschaftseinheit":"Roedernallee 55","PLZ":"13437","Art der Wärmeversorgung":"Gas","Wärmeverbrauch":"377923","Stromverbrauch":"59303","Bemerkung":""},"geometry":{"type":"Point","coordinates":[13.34085,52.58734]}},{"type":"Feature","properties":{"addressId":"127","Typ":"Feuerwehr","Wirtschaftseinheit":"Romain-Rolland-Str. 103,105,107","PLZ":"13089","Art der Wärmeversorgung":"Gas","Wärmeverbrauch":"75854","Stromverbrauch":"16367","Bemerkung":""},"geometry":{"type":"Point","coordinates":[13.43729,52.57132]}},{"type":"Feature","properties":{"addressId":"128","Typ":"Feuerwehr","Wirtschaftseinheit":"Schieritzstr. 24,26","PLZ":"10409","Art der Wärmeversorgung":"Fernwärme","Wärmeverbrauch":"159172","Stromverbrauch":"2723","Bemerkung":""},"geometry":{"type":"Point","coordinates":[13.4406,52.54521]}},{"type":"Feature","properties":{"addressId":"129","Typ":"Feuerwehr","Wirtschaftseinheit":"Schlierseestr. 10","PLZ":"12527","Art der Wärmeversorgung":"Gas","Wärmeverbrauch":"37733","Stromverbrauch":"27421","Bemerkung":""},"geometry":{"type":"Point","coordinates":[13.57936,52.42207]}},{"type":"Feature","properties":{"addressId":"130","Typ":"Feuerwehr","Wirtschaftseinheit":"Schmöckwitzer Damm 60","PLZ":"12527","Art der Wärmeversorgung":"Gas","Wärmeverbrauch":"","Stromverbrauch":"2524","Bemerkung":""},"geometry":{"type":"Point","coordinates":[13.64578,52.34725]}},{"type":"Feature","properties":{"addressId":"131","Typ":"Feuerwehr","Wirtschaftseinheit":"Selchowstr. 4","PLZ":"12489","Art der Wärmeversorgung":"Gas","Wärmeverbrauch":"86218","Stromverbrauch":"12654","Bemerkung":""},"geometry":{"type":"Point","coordinates":[13.55003,52.43934]}},{"type":"Feature","properties":{"addressId":"132","Typ":"Feuerwehr","Wirtschaftseinheit":"Semmelweisstr. 83-87","PLZ":"12524","Art der Wärmeversorgung":"Öl","Wärmeverbrauch":"0","Stromverbrauch":"0","Bemerkung":"Wärme- und Stromverbrauch liegt nicht vor"},"geometry":{"type":"Point","coordinates":[13.52922,52.42383]}},{"type":"Feature","properties":{"addressId":"133","Typ":"Feuerwehr","Wirtschaftseinheit":"Senheimer Str. 69","PLZ":"13465","Art der Wärmeversorgung":"n/a","Wärmeverbrauch":"0","Stromverbrauch":"821541","Bemerkung":"Wärmeverbrauch liegt nicht vor"},"geometry":{"type":"Point","coordinates":[13.29291,52.64556]}},{"type":"Feature","properties":{"addressId":"134","Typ":"Feuerwehr","Wirtschaftseinheit":"Siemensstr. 22","PLZ":"12459","Art der Wärmeversorgung":"Fernwärme","Wärmeverbrauch":"156","Stromverbrauch":"","Bemerkung":"Stromverbrauch liegt nicht vor"},"geometry":{"type":"Point","coordinates":[13.51229,52.46426]}},{"type":"Feature","properties":{"addressId":"135","Typ":"Feuerwehr","Wirtschaftseinheit":"Stiftsweg 1a","PLZ":"13187","Art der Wärmeversorgung":"Fernwärme","Wärmeverbrauch":"0","Stromverbrauch":"0","Bemerkung":"Wärme- und Stromverbrauch liegt nicht vor"},"geometry":{"type":"Point","coordinates":[13.4155,52.57306]}},{"type":"Feature","properties":{"addressId":"136","Typ":"Feuerwehr","Wirtschaftseinheit":"Suarezstr. 9-10","PLZ":"14057","Art der Wärmeversorgung":"Fernwärme","Wärmeverbrauch":"85861","Stromverbrauch":"","Bemerkung":""},"geometry":{"type":"Point","coordinates":[13.29606,52.50906]}},{"type":"Feature","properties":{"addressId":"137","Typ":"Feuerwehr","Wirtschaftseinheit":"Südendstr. 18a","PLZ":"12169","Art der Wärmeversorgung":"Gas","Wärmeverbrauch":"4676","Stromverbrauch":"52288","Bemerkung":""},"geometry":{"type":"Point","coordinates":[13.33036,52.45597]}},{"type":"Feature","properties":{"addressId":"138","Typ":"Feuerwehr","Wirtschaftseinheit":"Triftstr. 8","PLZ":"13585","Art der Wärmeversorgung":"Gas","Wärmeverbrauch":"431479","Stromverbrauch":"","Bemerkung":""},"geometry":{"type":"Point","coordinates":[13.21039,52.5448]}},{"type":"Feature","properties":{"addressId":"139","Typ":"Feuerwehr","Wirtschaftseinheit":"Voltairestr. 2","PLZ":"10179","Art der Wärmeversorgung":"Fernwärme,Gas","Wärmeverbrauch":"803371","Stromverbrauch":"","Bemerkung":""},"geometry":{"type":"Point","coordinates":[13.41466,52.51691]}},{"type":"Feature","properties":{"addressId":"140","Typ":"Feuerwehr","Wirtschaftseinheit":"Waltersdorfer Str. 107","PLZ":"12526","Art der Wärmeversorgung":"Gas","Wärmeverbrauch":"108473","Stromverbrauch":"9683","Bemerkung":""},"geometry":{"type":"Point","coordinates":[13.5742,52.40169]}},{"type":"Feature","properties":{"addressId":"141","Typ":"Feuerwehr","Wirtschaftseinheit":"Wendenschloßstr. 348 / Werft Bootshaus","PLZ":"12557","Art der Wärmeversorgung":"n/a","Wärmeverbrauch":"0","Stromverbrauch":"409","Bemerkung":"Wärmeverbrauch liegt nicht vor"},"geometry":{"type":"Point","coordinates":[13.58456,52.42594]}},{"type":"Feature","properties":{"addressId":"142","Typ":"Feuerwehr","Wirtschaftseinheit":"Wiener Str. 64","PLZ":"10999","Art der Wärmeversorgung":"Gas","Wärmeverbrauch":"6287","Stromverbrauch":"107743","Bemerkung":""},"geometry":{"type":"Point","coordinates":[13.42918,52.49863]}},{"type":"Feature","properties":{"addressId":"143","Typ":"Feuerwehr","Wirtschaftseinheit":"Wilhelm-von-Siemens-Str. 15","PLZ":"12277","Art der Wärmeversorgung":"Gas","Wärmeverbrauch":"580522","Stromverbrauch":"117684","Bemerkung":""},"geometry":{"type":"Point","coordinates":[13.38049,52.42958]}},{"type":"Feature","properties":{"addressId":"144","Typ":"Feuerwehr","Wirtschaftseinheit":"Wilmsstr. 19,20","PLZ":"10961","Art der Wärmeversorgung":"Gas","Wärmeverbrauch":"407","Stromverbrauch":"59159","Bemerkung":""},"geometry":{"type":"Point","coordinates":[13.40313,52.49551]}},{"type":"Feature","properties":{"addressId":"145","Typ":"Flüchtlingsunterbringung","Wirtschaftseinheit":"Albert-Kuntz-Str. 61,63,65,67,69,71,73","PLZ":"12627","Art der Wärmeversorgung":"Fernwärme","Wärmeverbrauch":"1354735","Stromverbrauch":"405037","Bemerkung":""},"geometry":{"type":"Point","coordinates":[13.61941,52.53788]}},{"type":"Feature","properties":{"addressId":"146","Typ":"Flüchtlingsunterbringung","Wirtschaftseinheit":"Alt-Moabit 82 B","PLZ":"10555","Art der Wärmeversorgung":"n/a","Wärmeverbrauch":"0","Stromverbrauch":"244526","Bemerkung":"Wärmeverbrauch liegt nicht vor"},"geometry":{"type":"Point","coordinates":[13.33691,52.52487]}},{"type":"Feature","properties":{"addressId":"147","Typ":"Flüchtlingsunterbringung","Wirtschaftseinheit":"Am Beelitzhof 12,14,14A-C,16,16A-C","PLZ":"14129","Art der Wärmeversorgung":"n/a","Wärmeverbrauch":"345712","Stromverbrauch":"13426","Bemerkung":""},"geometry":{"type":"Point","coordinates":[13.19001,52.43166]}},{"type":"Feature","properties":{"addressId":"148","Typ":"Flüchtlingsunterbringung","Wirtschaftseinheit":"Brebacher Weg 15","PLZ":"12683","Art der Wärmeversorgung":"Fernwärme","Wärmeverbrauch":"1088910","Stromverbrauch":"228395","Bemerkung":""},"geometry":{"type":"Point","coordinates":[13.56886,52.51393]}},{"type":"Feature","properties":{"addressId":"149","Typ":"Flüchtlingsunterbringung","Wirtschaftseinheit":"Carola-Neher-Str. 65 / Maxie-Wander-Str. 78","PLZ":"12619","Art der Wärmeversorgung":"Fernwärme","Wärmeverbrauch":"1605624","Stromverbrauch":"165925","Bemerkung":""},"geometry":{"type":"Point","coordinates":[13.59949,52.53038]}},{"type":"Feature","properties":{"addressId":"150","Typ":"Flüchtlingsunterbringung","Wirtschaftseinheit":"Eschenallee 3","PLZ":"14050","Art der Wärmeversorgung":"Gas,Heizöl","Wärmeverbrauch":"1951734","Stromverbrauch":"","Bemerkung":""},"geometry":{"type":"Point","coordinates":[13.26872,52.51845]}},{"type":"Feature","properties":{"addressId":"151","Typ":"Flüchtlingsunterbringung","Wirtschaftseinheit":"Kiefholzstr. 71, 71 A-C","PLZ":"12435","Art der Wärmeversorgung":"Gas","Wärmeverbrauch":"594861","Stromverbrauch":"197585","Bemerkung":""},"geometry":{"type":"Point","coordinates":[13.45682,52.4867]}},{"type":"Feature","properties":{"addressId":"152","Typ":"Flüchtlingsunterbringung","Wirtschaftseinheit":"Kirchhainer Damm 74","PLZ":"12309","Art der Wärmeversorgung":"Gas","Wärmeverbrauch":"0","Stromverbrauch":"122064","Bemerkung":"Wärmeverbrauch liegt nicht vor"},"geometry":{"type":"Point","coordinates":[13.41521,52.37885]}},{"type":"Feature","properties":{"addressId":"153","Typ":"Flüchtlingsunterbringung","Wirtschaftseinheit":"Kladower Damm 333","PLZ":"14089","Art der Wärmeversorgung":"Gas","Wärmeverbrauch":"339356","Stromverbrauch":"21606","Bemerkung":""},"geometry":{"type":"Point","coordinates":[13.1503,52.45729]}},{"type":"Feature","properties":{"addressId":"154","Typ":"Flüchtlingsunterbringung","Wirtschaftseinheit":"Leonorenstr. 33 B","PLZ":"12247","Art der Wärmeversorgung":"Fernwärme","Wärmeverbrauch":"1569110","Stromverbrauch":"487984","Bemerkung":""},"geometry":{"type":"Point","coordinates":[13.34364,52.44354]}},{"type":"Feature","properties":{"addressId":"155","Typ":"Flüchtlingsunterbringung","Wirtschaftseinheit":"Marienfelder Allee 66-80","PLZ":"12277","Art der Wärmeversorgung":"n/a","Wärmeverbrauch":"0","Stromverbrauch":"966631","Bemerkung":"Wärmeverbrauch liegt nicht vor"},"geometry":{"type":"Point","coordinates":[13.36839,52.42049]}},{"type":"Feature","properties":{"addressId":"156","Typ":"Flüchtlingsunterbringung","Wirtschaftseinheit":"Niedstr. 1,2","PLZ":"12159","Art der Wärmeversorgung":"Gas","Wärmeverbrauch":"2297130","Stromverbrauch":"486759","Bemerkung":""},"geometry":{"type":"Point","coordinates":[13.33576,52.47249]}},{"type":"Feature","properties":{"addressId":"157","Typ":"Flüchtlingsunterbringung","Wirtschaftseinheit":"Paul-Schwenk-Str. 3,5,7,9,11,13,15","PLZ":"12685","Art der Wärmeversorgung":"Fernwärme","Wärmeverbrauch":"1037807","Stromverbrauch":"490262","Bemerkung":""},"geometry":{"type":"Point","coordinates":[13.53961,52.53771]}},{"type":"Feature","properties":{"addressId":"158","Typ":"Flüchtlingsunterbringung","Wirtschaftseinheit":"Rudolf-Leonhard-Str. 13, 13 A-F","PLZ":"12679","Art der Wärmeversorgung":"FernwärmE","Wärmeverbrauch":"979774","Stromverbrauch":"1184594","Bemerkung":""},"geometry":{"type":"Point","coordinates":[13.56934,52.55132]}},{"type":"Feature","properties":{"addressId":"159","Typ":"Flüchtlingsunterbringung","Wirtschaftseinheit":"Salvador-Allende-Str. 89, 91","PLZ":"12559","Art der Wärmeversorgung":"n/a","Wärmeverbrauch":"0","Stromverbrauch":"4215","Bemerkung":"Wärmeverbrauch liegt nicht vor"},"geometry":{"type":"Point","coordinates":[13.59312,52.44573]}},{"type":"Feature","properties":{"addressId":"160","Typ":"Flüchtlingsunterbringung","Wirtschaftseinheit":"Staakener Str. 79","PLZ":"13583","Art der Wärmeversorgung":"Gas","Wärmeverbrauch":"0","Stromverbrauch":"0","Bemerkung":"Wärme- und Stromverbrauch liegt nicht vor"},"geometry":{"type":"Point","coordinates":[13.18757,52.53593]}},{"type":"Feature","properties":{"addressId":"161","Typ":"Flüchtlingsunterbringung","Wirtschaftseinheit":"Storkower Str. 133A","PLZ":"10407","Art der Wärmeversorgung":"n/a","Wärmeverbrauch":"384528","Stromverbrauch":"10037","Bemerkung":""},"geometry":{"type":"Point","coordinates":[13.45486,52.53541]}},{"type":"Feature","properties":{"addressId":"162","Typ":"Flüchtlingsunterbringung","Wirtschaftseinheit":"Storkower Str. 139 C","PLZ":"10407","Art der Wärmeversorgung":"Fernwärme","Wärmeverbrauch":"86848","Stromverbrauch":"18041","Bemerkung":""},"geometry":{"type":"Point","coordinates":[13.45426,52.53309]}},{"type":"Feature","properties":{"addressId":"163","Typ":"Flüchtlingsunterbringung","Wirtschaftseinheit":"Wartenberger Str. 120, 120 A-F","PLZ":"13053","Art der Wärmeversorgung":"Fernwärme","Wärmeverbrauch":"1182080","Stromverbrauch":"452843","Bemerkung":""},"geometry":{"type":"Point","coordinates":[13.51669,52.56112]}},{"type":"Feature","properties":{"addressId":"164","Typ":"Flüchtlingsunterbringung","Wirtschaftseinheit":"Wassersportallee 56,58","PLZ":"12527","Art der Wärmeversorgung":"Gas","Wärmeverbrauch":"241319","Stromverbrauch":"","Bemerkung":""},"geometry":{"type":"Point","coordinates":[13.57436,52.41427]}},{"type":"Feature","properties":{"addressId":"165","Typ":"Flüchtlingsunterbringung","Wirtschaftseinheit":"Wittenberger Str. 16, 16 A-C, 18, 18 A-B","PLZ":"12689","Art der Wärmeversorgung":"Fernwärme","Wärmeverbrauch":"1431473","Stromverbrauch":"33249","Bemerkung":""},"geometry":{"type":"Point","coordinates":[13.56508,52.56508]}},{"type":"Feature","properties":{"addressId":"166","Typ":"Flüchtlingsunterbringung","Wirtschaftseinheit":"Wolfgang-Heinz-Str. 45 A-G","PLZ":"13125","Art der Wärmeversorgung":"Fernwärme","Wärmeverbrauch":"0","Stromverbrauch":"1080189","Bemerkung":"Wärmeverbrauch liegt nicht vor"},"geometry":{"type":"Point","coordinates":[13.49309,52.62999]}},{"type":"Feature","properties":{"addressId":"167","Typ":"Flüchtlingsunterbringung","Wirtschaftseinheit":"Zum Heckeshorn 30","PLZ":"14109","Art der Wärmeversorgung":"Gas","Wärmeverbrauch":"","Stromverbrauch":"18637","Bemerkung":""},"geometry":{"type":"Point","coordinates":[13.1612,52.42955]}},{"type":"Feature","properties":{"addressId":"168","Typ":"Gerichte","Wirtschaftseinheit":"Alt-Moabit 5","PLZ":"10559","Art der Wärmeversorgung":"Fernwärme","Wärmeverbrauch":"580116","Stromverbrauch":"58584","Bemerkung":""},"geometry":{"type":"Point","coordinates":[13.3629348,52.5233073]}},{"type":"Feature","properties":{"addressId":"169","Typ":"Gerichte","Wirtschaftseinheit":"Altstädter Ring 7","PLZ":"13597","Art der Wärmeversorgung":"Fernwärme","Wärmeverbrauch":"419608","Stromverbrauch":"155328","Bemerkung":""},"geometry":{"type":"Point","coordinates":[13.19985,52.53693]}},{"type":"Feature","properties":{"addressId":"170","Typ":"Gerichte","Wirtschaftseinheit":"Amtsgerichtsplatz 1","PLZ":"14057","Art der Wärmeversorgung":"Fernwärme","Wärmeverbrauch":"1861518","Stromverbrauch":"244525","Bemerkung":""},"geometry":{"type":"Point","coordinates":[13.29507,52.5061]}},{"type":"Feature","properties":{"addressId":"171","Typ":"Gerichte","Wirtschaftseinheit":"Brunnenplatz 1","PLZ":"13357","Art der Wärmeversorgung":"Fernwärme","Wärmeverbrauch":"1338733","Stromverbrauch":"","Bemerkung":""},"geometry":{"type":"Point","coordinates":[13.37563,52.55081]}},{"type":"Feature","properties":{"addressId":"172","Typ":"Gerichte","Wirtschaftseinheit":"Elßholzstr. 30-33","PLZ":"10781","Art der Wärmeversorgung":"Gas","Wärmeverbrauch":"0","Stromverbrauch":"0","Bemerkung":"Wärme- und Stromverbrauch liegt nicht vor"},"geometry":{"type":"Point","coordinates":[13.35676,52.49248]}},{"type":"Feature","properties":{"addressId":"173","Typ":"Gerichte","Wirtschaftseinheit":"Grunewaldstr. 66-67","PLZ":"10823","Art der Wärmeversorgung":"Gas","Wärmeverbrauch":"1251877","Stromverbrauch":"191079","Bemerkung":""},"geometry":{"type":"Point","coordinates":[13.34601,52.48897]}},{"type":"Feature","properties":{"addressId":"174","Typ":"Gerichte","Wirtschaftseinheit":"Hardenbergstr. 31","PLZ":"10623","Art der Wärmeversorgung":"Fernwärme","Wärmeverbrauch":"1468400","Stromverbrauch":"17385","Bemerkung":""},"geometry":{"type":"Point","coordinates":[13.33073,52.50726]}},{"type":"Feature","properties":{"addressId":"175","Typ":"Gerichte","Wirtschaftseinheit":"Invalidenstr. 52","PLZ":"10557","Art der Wärmeversorgung":"Fernwärme","Wärmeverbrauch":"1074279","Stromverbrauch":"271383","Bemerkung":""},"geometry":{"type":"Point","coordinates":[13.37128,52.52725]}},{"type":"Feature","properties":{"addressId":"176","Typ":"Gerichte","Wirtschaftseinheit":"Karl-Marx-Str. 77","PLZ":"12043","Art der Wärmeversorgung":"Fernwärme","Wärmeverbrauch":"811787","Stromverbrauch":"128271","Bemerkung":""},"geometry":{"type":"Point","coordinates":[13.43434,52.4818]}},{"type":"Feature","properties":{"addressId":"177","Typ":"Gerichte","Wirtschaftseinheit":"Kissingenstr. 5,6","PLZ":"13189","Art der Wärmeversorgung":"Fernwärme","Wärmeverbrauch":"652378","Stromverbrauch":"","Bemerkung":""},"geometry":{"type":"Point","coordinates":[13.41566,52.56628]}},{"type":"Feature","properties":{"addressId":"178","Typ":"Gerichte","Wirtschaftseinheit":"Lehrter Str. 60","PLZ":"10557","Art der Wärmeversorgung":"Fernwärme","Wärmeverbrauch":"965024","Stromverbrauch":"","Bemerkung":"Stromverbrauch liegt nicht vor"},"geometry":{"type":"Point","coordinates":[13.36147,52.53088]}},{"type":"Feature","properties":{"addressId":"179","Typ":"Gerichte","Wirtschaftseinheit":"Littenstr. 12-17","PLZ":"10179","Art der Wärmeversorgung":"Fernwärme","Wärmeverbrauch":"4168762","Stromverbrauch":"","Bemerkung":""},"geometry":{"type":"Point","coordinates":[13.41395,52.51797]}},{"type":"Feature","properties":{"addressId":"180","Typ":"Gerichte","Wirtschaftseinheit":"Mandrellaplatz 6","PLZ":"12555","Art der Wärmeversorgung":"Gas","Wärmeverbrauch":"579872","Stromverbrauch":"105816","Bemerkung":""},"geometry":{"type":"Point","coordinates":[13.57957,52.45534]}},{"type":"Feature","properties":{"addressId":"181","Typ":"Gerichte","Wirtschaftseinheit":"Möckernstr. 128-130","PLZ":"10963","Art der Wärmeversorgung":"Gas","Wärmeverbrauch":"2119582","Stromverbrauch":"596176","Bemerkung":""},"geometry":{"type":"Point","coordinates":[13.38128,52.50014]}},{"type":"Feature","properties":{"addressId":"182","Typ":"Gerichte","Wirtschaftseinheit":"Parkstr. 71","PLZ":"13086","Art der Wärmeversorgung":"Gas","Wärmeverbrauch":"971027","Stromverbrauch":"","Bemerkung":""},"geometry":{"type":"Point","coordinates":[13.46013,52.55735]}},{"type":"Feature","properties":{"addressId":"183","Typ":"Gerichte","Wirtschaftseinheit":"Ringstr. 9","PLZ":"12203","Art der Wärmeversorgung":"Gas","Wärmeverbrauch":"766926","Stromverbrauch":"84841","Bemerkung":""},"geometry":{"type":"Point","coordinates":[13.30774,52.43741]}},{"type":"Feature","properties":{"addressId":"184","Typ":"Gerichte","Wirtschaftseinheit":"Roedeliusplatz 1","PLZ":"10365","Art der Wärmeversorgung":"Fernwärme","Wärmeverbrauch":"511778","Stromverbrauch":"926233","Bemerkung":""},"geometry":{"type":"Point","coordinates":[13.48948,52.51439]}},{"type":"Feature","properties":{"addressId":"185","Typ":"Gerichte","Wirtschaftseinheit":"Schönstedtstr. 17","PLZ":"12043","Art der Wärmeversorgung":"Fernwärme","Wärmeverbrauch":"811787","Stromverbrauch":"13","Bemerkung":""},"geometry":{"type":"Point","coordinates":[13.43501,52.48181]}},{"type":"Feature","properties":{"addressId":"186","Typ":"Gerichte","Wirtschaftseinheit":"Schönstedtstr. 5","PLZ":"13357","Art der Wärmeversorgung":"Fernwärme","Wärmeverbrauch":"1118455","Stromverbrauch":"","Bemerkung":""},"geometry":{"type":"Point","coordinates":[13.37447,52.55002]}},{"type":"Feature","properties":{"addressId":"187","Typ":"Gerichte","Wirtschaftseinheit":"Tegeler Weg 17-20","PLZ":"10589","Art der Wärmeversorgung":"Fernwärme","Wärmeverbrauch":"2232150","Stromverbrauch":"96992","Bemerkung":""},"geometry":{"type":"Point","coordinates":[13.29753,52.52699]}},{"type":"Feature","properties":{"addressId":"188","Typ":"Gerichte","Wirtschaftseinheit":"Turmstr. 91","PLZ":"10559","Art der Wärmeversorgung":"Fernwärme","Wärmeverbrauch":"8506223","Stromverbrauch":"0","Bemerkung":""},"geometry":{"type":"Point","coordinates":[13.3538,52.52638]}},{"type":"Feature","properties":{"addressId":"189","Typ":"JVA","Wirtschaftseinheit":"Alfredstr. 11","PLZ":"10365","Art der Wärmeversorgung":"Fernwärme","Wärmeverbrauch":"1632800","Stromverbrauch":"","Bemerkung":""},"geometry":{"type":"Point","coordinates":[13.48983,52.5136]}},{"type":"Feature","properties":{"addressId":"190","Typ":"JVA","Wirtschaftseinheit":"Alt-Moabit 12a / JVA Moabit","PLZ":"10559","Art der Wärmeversorgung":"Fernwärme,Gas","Wärmeverbrauch":"8604705","Stromverbrauch":"0","Bemerkung":"Stromverbrauch liegt nicht vor"},"geometry":{"type":"Point","coordinates":[13.3541,52.52411]}},{"type":"Feature","properties":{"addressId":"191","Typ":"JVA","Wirtschaftseinheit":"Arkonastr. 56","PLZ":"13189","Art der Wärmeversorgung":"Fernwärme","Wärmeverbrauch":"877226","Stromverbrauch":"551935","Bemerkung":""},"geometry":{"type":"Point","coordinates":[13.41543,52.5657]}},{"type":"Feature","properties":{"addressId":"192","Typ":"JVA","Wirtschaftseinheit":"Ernst-Stargardt-Allee 1 / JVA Heidering","PLZ":"14979","Art der Wärmeversorgung":"Fernwärme,Gas","Wärmeverbrauch":"0","Stromverbrauch":"","Bemerkung":"Wärmeverbrauch liegt nicht vor"},"geometry":{"type":"Point","coordinates":[13.27748,52.34025]}},{"type":"Feature","properties":{"addressId":"193","Typ":"JVA","Wirtschaftseinheit":"Friedrich-Olbricht-Damm 16, JVA Plötzensee","PLZ":"13627","Art der Wärmeversorgung":"Gas","Wärmeverbrauch":"28122647","Stromverbrauch":"4896155","Bemerkung":""},"geometry":{"type":"Point","coordinates":[13.32196,52.53903]}},{"type":"Feature","properties":{"addressId":"194","Typ":"JVA","Wirtschaftseinheit":"Friedrich-Olbricht-Damm 17, JVA Plötzensee","PLZ":"13627","Art der Wärmeversorgung":"Gas","Wärmeverbrauch":"22827088","Stromverbrauch":"4705","Bemerkung":""},"geometry":{"type":"Point","coordinates":[13.3215,52.53858]}},{"type":"Feature","properties":{"addressId":"195","Typ":"JVA","Wirtschaftseinheit":"Friedrich-Olbricht-Damm 40, JSA","PLZ":"13627","Art der Wärmeversorgung":"Gas","Wärmeverbrauch":"0","Stromverbrauch":"169534","Bemerkung":"Wärmeverbrauch liegt nicht vor"},"geometry":{"type":"Point","coordinates":[13.31757,52.54048]}},{"type":"Feature","properties":{"addressId":"196","Typ":"JVA","Wirtschaftseinheit":"Kiefheider Weg 72","PLZ":"13503","Art der Wärmeversorgung":"Gas","Wärmeverbrauch":"630251","Stromverbrauch":"26532","Bemerkung":""},"geometry":{"type":"Point","coordinates":[13.24735,52.62162]}},{"type":"Feature","properties":{"addressId":"197","Typ":"JVA","Wirtschaftseinheit":"Kirchhainer Damm 64 - 66, JAA","PLZ":"12309","Art der Wärmeversorgung":"Gas","Wärmeverbrauch":"1439454","Stromverbrauch":"132782","Bemerkung":""},"geometry":{"type":"Point","coordinates":[13.41353,52.3805]}},{"type":"Feature","properties":{"addressId":"198","Typ":"JVA","Wirtschaftseinheit":"Kisselnallee 19","PLZ":"13589","Art der Wärmeversorgung":"Gas","Wärmeverbrauch":"29498","Stromverbrauch":"105624","Bemerkung":""},"geometry":{"type":"Point","coordinates":[13.18995,52.55425]}},{"type":"Feature","properties":{"addressId":"199","Typ":"JVA","Wirtschaftseinheit":"Lehrter Str. 61, JVA Plötzensee","PLZ":"10557","Art der Wärmeversorgung":"Fernwärme","Wärmeverbrauch":"","Stromverbrauch":"17869","Bemerkung":""},"geometry":{"type":"Point","coordinates":[13.36223,52.52999]}},{"type":"Feature","properties":{"addressId":"200","Typ":"JVA","Wirtschaftseinheit":"Lützowstr. 45, JAA","PLZ":"12307","Art der Wärmeversorgung":"Gas","Wärmeverbrauch":"43275","Stromverbrauch":"12265","Bemerkung":""},"geometry":{"type":"Point","coordinates":[13.41163,52.37921]}},{"type":"Feature","properties":{"addressId":"201","Typ":"JVA","Wirtschaftseinheit":"Neuwedeller Str. 4","PLZ":"12053","Art der Wärmeversorgung":"Fernwärme","Wärmeverbrauch":"","Stromverbrauch":"67954","Bemerkung":""},"geometry":{"type":"Point","coordinates":[13.43107,52.47546]}},{"type":"Feature","properties":{"addressId":"202","Typ":"JVA","Wirtschaftseinheit":"Niederneuendorfer Allee 140-150","PLZ":"13587","Art der Wärmeversorgung":"Gas","Wärmeverbrauch":"1583049","Stromverbrauch":"166628","Bemerkung":""},"geometry":{"type":"Point","coordinates":[13.21174,52.56981]}},{"type":"Feature","properties":{"addressId":"203","Typ":"JVA","Wirtschaftseinheit":"Ollenhauerstr. 128","PLZ":"13403","Art der Wärmeversorgung":"Gas","Wärmeverbrauch":"882413","Stromverbrauch":"75931","Bemerkung":""},"geometry":{"type":"Point","coordinates":[13.3287,52.56666]}},{"type":"Feature","properties":{"addressId":"204","Typ":"JVA","Wirtschaftseinheit":"Robert-von-Ostertag-Str. 2","PLZ":"14163","Art der Wärmeversorgung":"Gas","Wärmeverbrauch":"1763747","Stromverbrauch":"","Bemerkung":""},"geometry":{"type":"Point","coordinates":[13.23918,52.42576]}},{"type":"Feature","properties":{"addressId":"205","Typ":"JVA","Wirtschaftseinheit":"Saatwinkler Damm 1A, JVA Plötzensee (JVK)","PLZ":"13627","Art der Wärmeversorgung":"Gas,Nahwärme","Wärmeverbrauch":"0","Stromverbrauch":"128908","Bemerkung":"Wärmeverbrauch liegt nicht vor"},"geometry":{"type":"Point","coordinates":[13.32623,52.53932]}},{"type":"Feature","properties":{"addressId":"206","Typ":"JVA","Wirtschaftseinheit":"Seidelstr. 39 / JVA Tegel","PLZ":"13507","Art der Wärmeversorgung":"Gas","Wärmeverbrauch":"","Stromverbrauch":"","Bemerkung":""},"geometry":{"type":"Point","coordinates":[13.29583,52.57357]}},{"type":"Feature","properties":{"addressId":"207","Typ":"Kultur","Wirtschaftseinheit":"Albrechtstr. 20","PLZ":"10117","Art der Wärmeversorgung":"Fernwärme","Wärmeverbrauch":"0","Stromverbrauch":"352164","Bemerkung":"Wärmeverbrauch liegt nicht vor"},"geometry":{"type":"Point","coordinates":[13.38439,52.52252]}},{"type":"Feature","properties":{"addressId":"208","Typ":"Kultur","Wirtschaftseinheit":"Alte Jakobstr. 128","PLZ":"10969","Art der Wärmeversorgung":"Fernwärme,Öl","Wärmeverbrauch":"1515406","Stromverbrauch":"","Bemerkung":""},"geometry":{"type":"Point","coordinates":[13.39858,52.50353]}},{"type":"Feature","properties":{"addressId":"209","Typ":"Kultur","Wirtschaftseinheit":"Alt-Treptow 1","PLZ":"12435","Art der Wärmeversorgung":"Gas","Wärmeverbrauch":"141629","Stromverbrauch":"65297","Bemerkung":""},"geometry":{"type":"Point","coordinates":[13.47654,52.48588]}},{"type":"Feature","properties":{"addressId":"210","Typ":"Kultur","Wirtschaftseinheit":"Am Großen Wannsee 56,58 / Wannsee-Konferenz","PLZ":"14109","Art der Wärmeversorgung":"Gas","Wärmeverbrauch":"30121","Stromverbrauch":"90715","Bemerkung":""},"geometry":{"type":"Point","coordinates":[13.16636,52.43232]}},{"type":"Feature","properties":{"addressId":"211","Typ":"Kultur","Wirtschaftseinheit":"Am Köllnischen Park 4 / Marinehaus","PLZ":"10179","Art der Wärmeversorgung":"Fernwärme","Wärmeverbrauch":"0","Stromverbrauch":"91931","Bemerkung":"Wärmeverbrauch liegt nicht vor"},"geometry":{"type":"Point","coordinates":[13.4156,52.51371]}},{"type":"Feature","properties":{"addressId":"212","Typ":"Kultur","Wirtschaftseinheit":"Am Köllnischen Park 5 / Märkisches Museum","PLZ":"10179","Art der Wärmeversorgung":"Fernwärme","Wärmeverbrauch":"778551","Stromverbrauch":"106799","Bemerkung":""},"geometry":{"type":"Point","coordinates":[13.41517,52.51358]}},{"type":"Feature","properties":{"addressId":"213","Typ":"Kultur","Wirtschaftseinheit":"Am Sandwerder 5 / Literarisches Colloquium","PLZ":"14109","Art der Wärmeversorgung":"Gas","Wärmeverbrauch":"334331","Stromverbrauch":"69173","Bemerkung":""},"geometry":{"type":"Point","coordinates":[13.17852,52.42268]}},{"type":"Feature","properties":{"addressId":"214","Typ":"Kultur","Wirtschaftseinheit":"Bismarckstr. 110 / Schillertheater","PLZ":"10625","Art der Wärmeversorgung":"Fernwärme","Wärmeverbrauch":"1973055","Stromverbrauch":"927461","Bemerkung":""},"geometry":{"type":"Point","coordinates":[13.31825,52.51182]}},{"type":"Feature","properties":{"addressId":"215","Typ":"Kultur","Wirtschaftseinheit":"Blücherplatz 1 / Amerika-Gedenkbibliothek","PLZ":"10961","Art der Wärmeversorgung":"Gas","Wärmeverbrauch":"1876655","Stromverbrauch":"667888","Bemerkung":""},"geometry":{"type":"Point","coordinates":[13.39256,52.49671]}},{"type":"Feature","properties":{"addressId":"216","Typ":"Kultur","Wirtschaftseinheit":"Breite Str. 30-37, ZLB","PLZ":"10178","Art der Wärmeversorgung":"Fernwärme","Wärmeverbrauch":"3155379","Stromverbrauch":"1522377","Bemerkung":""},"geometry":{"type":"Point","coordinates":[13.40444,52.51527]}},{"type":"Feature","properties":{"addressId":"217","Typ":"Kultur","Wirtschaftseinheit":"Britzer Str. 5 / Topographie des Terrors","PLZ":"12439","Art der Wärmeversorgung":"Gas","Wärmeverbrauch":"302915","Stromverbrauch":"","Bemerkung":""},"geometry":{"type":"Point","coordinates":[13.51832,52.45309]}},{"type":"Feature","properties":{"addressId":"218","Typ":"Kultur","Wirtschaftseinheit":"Bussardsteig 9 / Brücke - Museum","PLZ":"14195","Art der Wärmeversorgung":"Gas","Wärmeverbrauch":"304326","Stromverbrauch":"153171","Bemerkung":""},"geometry":{"type":"Point","coordinates":[13.27474,52.46686]}},{"type":"Feature","properties":{"addressId":"219","Typ":"Kultur","Wirtschaftseinheit":"Chausseestr. 125 / Brecht-Haus","PLZ":"10115","Art der Wärmeversorgung":"Fernwärme","Wärmeverbrauch":"127119","Stromverbrauch":"","Bemerkung":""},"geometry":{"type":"Point","coordinates":[13.38482,52.52893]}},{"type":"Feature","properties":{"addressId":"220","Typ":"Kultur","Wirtschaftseinheit":"Clauertstr. 11 / Museumsdorf Düppel","PLZ":"14163","Art der Wärmeversorgung":"Gas","Wärmeverbrauch":"13558","Stromverbrauch":"172372","Bemerkung":""},"geometry":{"type":"Point","coordinates":[13.23639,52.42461]}},{"type":"Feature","properties":{"addressId":"221","Typ":"Kultur","Wirtschaftseinheit":"Colomierstr. 3 / Liebermann-Villa","PLZ":"14109","Art der Wärmeversorgung":"Gas","Wärmeverbrauch":"0","Stromverbrauch":"352802","Bemerkung":"Wärmeverbrauch liegt nicht vor"},"geometry":{"type":"Point","coordinates":[13.16494,52.42881]}},{"type":"Feature","properties":{"addressId":"222","Typ":"Kultur","Wirtschaftseinheit":"Fasanenstr. 23","PLZ":"10719","Art der Wärmeversorgung":"Fernwärme","Wärmeverbrauch":"110843","Stromverbrauch":"33188","Bemerkung":""},"geometry":{"type":"Point","coordinates":[13.32683,52.50211]}},{"type":"Feature","properties":{"addressId":"223","Typ":"Kultur","Wirtschaftseinheit":"Friedrichstr. 107 / Friedrichstadtpalast","PLZ":"10117","Art der Wärmeversorgung":"Fernwärme","Wärmeverbrauch":"0","Stromverbrauch":"651435","Bemerkung":"Wärmeverbrauch liegt nicht vor"},"geometry":{"type":"Point","coordinates":[13.38802,52.52394]}},{"type":"Feature","properties":{"addressId":"224","Typ":"Kultur","Wirtschaftseinheit":"Gendarmenmarkt 1-2 / Deutscher Dom","PLZ":"10117","Art der Wärmeversorgung":"Fernwärme","Wärmeverbrauch":"0","Stromverbrauch":"145695","Bemerkung":"Wärmeverbrauch liegt nicht vor"},"geometry":{"type":"Point","coordinates":[13.39291,52.51275]}},{"type":"Feature","properties":{"addressId":"225","Typ":"Kultur","Wirtschaftseinheit":"Gendarmenmarkt 3-4","PLZ":"10117","Art der Wärmeversorgung":"Fernwärme","Wärmeverbrauch":"2922710","Stromverbrauch":"","Bemerkung":""},"geometry":{"type":"Point","coordinates":[13.39158,52.51329]}},{"type":"Feature","properties":{"addressId":"226","Typ":"Kultur","Wirtschaftseinheit":"Genslerstr. 66 / Gedenkstätte Hohenschönhausen","PLZ":"13055","Art der Wärmeversorgung":"Fernwärme","Wärmeverbrauch":"1124476","Stromverbrauch":"4539930","Bemerkung":""},"geometry":{"type":"Point","coordinates":[13.50015,52.54163]}},{"type":"Feature","properties":{"addressId":"227","Typ":"Kultur","Wirtschaftseinheit":"Hallesches Ufer 34-38","PLZ":"10963","Art der Wärmeversorgung":"Fernwärme","Wärmeverbrauch":"1798821","Stromverbrauch":"0","Bemerkung":"Stromverbrauch liegt nicht vor"},"geometry":{"type":"Point","coordinates":[13.38599,52.49911]}},{"type":"Feature","properties":{"addressId":"228","Typ":"Kultur","Wirtschaftseinheit":"Herbert-von-Karajan-Str. 1, Philharmonie","PLZ":"10785","Art der Wärmeversorgung":"Fernwärme","Wärmeverbrauch":"4134980","Stromverbrauch":"0","Bemerkung":""},"geometry":{"type":"Point","coordinates":[13.36897,52.51007]}},{"type":"Feature","properties":{"addressId":"229","Typ":"Kultur","Wirtschaftseinheit":"Hinter dem Gießhaus 2","PLZ":"10117","Art der Wärmeversorgung":"Fernwärme","Wärmeverbrauch":"","Stromverbrauch":"36442","Bemerkung":""},"geometry":{"type":"Point","coordinates":[13.39619,52.519]}},{"type":"Feature","properties":{"addressId":"230","Typ":"Kultur","Wirtschaftseinheit":"Hüttigpfad 16","PLZ":"13627","Art der Wärmeversorgung":"Fernwärme","Wärmeverbrauch":"0","Stromverbrauch":"123286","Bemerkung":"Wärmeverbrauch liegt nicht vor"},"geometry":{"type":"Point","coordinates":[13.32272567,52.54074141]}},{"type":"Feature","properties":{"addressId":"231","Typ":"Kultur","Wirtschaftseinheit":"Kantstr. 11-12 / Theater des Westens","PLZ":"10623","Art der Wärmeversorgung":"Fernwärme","Wärmeverbrauch":"181306","Stromverbrauch":"198235","Bemerkung":""},"geometry":{"type":"Point","coordinates":[13.3294,52.50629]}},{"type":"Feature","properties":{"addressId":"232","Typ":"Kultur","Wirtschaftseinheit":"Kantstr. 12 A / Delphi-Filmpalast","PLZ":"10623","Art der Wärmeversorgung":"Fernwärme","Wärmeverbrauch":"498","Stromverbrauch":"814","Bemerkung":""},"geometry":{"type":"Point","coordinates":[13.32845,52.50585]}},{"type":"Feature","properties":{"addressId":"233","Typ":"Kultur","Wirtschaftseinheit":"Käuzchensteig 8-12 / Kunsthaus Dahlem","PLZ":"14195","Art der Wärmeversorgung":"Gas","Wärmeverbrauch":"256667","Stromverbrauch":"4503","Bemerkung":""},"geometry":{"type":"Point","coordinates":[13.27453,52.46619]}},{"type":"Feature","properties":{"addressId":"234","Typ":"Kultur","Wirtschaftseinheit":"Klingelhöferstr. 14 / Bauhaus-Archiv","PLZ":"10785","Art der Wärmeversorgung":"Fernwärme","Wärmeverbrauch":"0","Stromverbrauch":"0","Bemerkung":"Wärme- und Stromverbrauch liegt nicht vor"},"geometry":{"type":"Point","coordinates":[13.35389,52.50633]}},{"type":"Feature","properties":{"addressId":"235","Typ":"Kultur","Wirtschaftseinheit":"Klosterstr. 68 / Podewil","PLZ":"10179","Art der Wärmeversorgung":"Fernwärme","Wärmeverbrauch":"577293","Stromverbrauch":"441246","Bemerkung":""},"geometry":{"type":"Point","coordinates":[13.4126,52.51741]}},{"type":"Feature","properties":{"addressId":"236","Typ":"Kultur","Wirtschaftseinheit":"Königin-Luise-Str. 49, Domäne Dahlem","PLZ":"14195","Art der Wärmeversorgung":"Öl","Wärmeverbrauch":"162365","Stromverbrauch":"250214","Bemerkung":"keine vollständige Wärmeverbrauchsdaten"},"geometry":{"type":"Point","coordinates":[13.28865,52.45834]}},{"type":"Feature","properties":{"addressId":"237","Typ":"Kultur","Wirtschaftseinheit":"Kunst im Stadtraum - Brunnenstraße 188-190","PLZ":"10119","Art der Wärmeversorgung":"n/a","Wärmeverbrauch":"1911828","Stromverbrauch":"402624","Bemerkung":""},"geometry":{"type":"Point","coordinates":[13.4000167,52.5308493]}},{"type":"Feature","properties":{"addressId":"238","Typ":"Kultur","Wirtschaftseinheit":"Kurfürstendamm 153","PLZ":"10709","Art der Wärmeversorgung":"Fernwärme","Wärmeverbrauch":"1509620","Stromverbrauch":"49322","Bemerkung":""},"geometry":{"type":"Point","coordinates":[13.30224,52.4988]}},{"type":"Feature","properties":{"addressId":"239","Typ":"Kultur","Wirtschaftseinheit":"Linienstr. 227 / Volksbühne","PLZ":"10178","Art der Wärmeversorgung":"Fernwärme","Wärmeverbrauch":"165901","Stromverbrauch":"710088","Bemerkung":""},"geometry":{"type":"Point","coordinates":[13.41218,52.52738]}},{"type":"Feature","properties":{"addressId":"240","Typ":"Kultur","Wirtschaftseinheit":"Luxemburger Str. 20 / Atze Musiktheater","PLZ":"13353","Art der Wärmeversorgung":"Fernwärme","Wärmeverbrauch":"1791540","Stromverbrauch":"94672","Bemerkung":""},"geometry":{"type":"Point","coordinates":[13.35169,52.54332]}},{"type":"Feature","properties":{"addressId":"241","Typ":"Kultur","Wirtschaftseinheit":"Möckernstr. 26","PLZ":"10963","Art der Wärmeversorgung":"Fernwärme,Gas","Wärmeverbrauch":"1205517","Stromverbrauch":"505132","Bemerkung":""},"geometry":{"type":"Point","coordinates":[13.3795,52.49824]}},{"type":"Feature","properties":{"addressId":"242","Typ":"Kultur","Wirtschaftseinheit":"Naunynstr. 27","PLZ":"10997","Art der Wärmeversorgung":"n/a","Wärmeverbrauch":"81185","Stromverbrauch":"20624","Bemerkung":""},"geometry":{"type":"Point","coordinates":[13.4213,52.502]}},{"type":"Feature","properties":{"addressId":"243","Typ":"Kultur","Wirtschaftseinheit":"Nikolaikirchplatz 1 / Nikolaikirche","PLZ":"10178","Art der Wärmeversorgung":"Fernwärme","Wärmeverbrauch":"238793","Stromverbrauch":"787","Bemerkung":""},"geometry":{"type":"Point","coordinates":[13.40766,52.51646]}},{"type":"Feature","properties":{"addressId":"244","Typ":"Kultur","Wirtschaftseinheit":"Osloer Str. 102 / Bildhauerwerkstatt","PLZ":"13359","Art der Wärmeversorgung":"Gas","Wärmeverbrauch":"484975","Stromverbrauch":"123303","Bemerkung":""},"geometry":{"type":"Point","coordinates":[13.38071,52.55581]}},{"type":"Feature","properties":{"addressId":"245","Typ":"Kultur","Wirtschaftseinheit":"Pariser Platz 8 / Brandenburger Tor","PLZ":"10117","Art der Wärmeversorgung":"Gas","Wärmeverbrauch":"43769","Stromverbrauch":"64035","Bemerkung":""},"geometry":{"type":"Point","coordinates":[13.3779,52.51651]}},{"type":"Feature","properties":{"addressId":"246","Typ":"Kultur","Wirtschaftseinheit":"Parkaue 23-29 / Theater an der Parkaue","PLZ":"10367","Art der Wärmeversorgung":"Fernwärme","Wärmeverbrauch":"1530452","Stromverbrauch":"307623","Bemerkung":""},"geometry":{"type":"Point","coordinates":[13.47749,52.51656]}},{"type":"Feature","properties":{"addressId":"247","Typ":"Kultur","Wirtschaftseinheit":"Poststr. 13,14","PLZ":"10178","Art der Wärmeversorgung":"Fernwärme","Wärmeverbrauch":"389375","Stromverbrauch":"111532","Bemerkung":""},"geometry":{"type":"Point","coordinates":[13.40687,52.51619]}},{"type":"Feature","properties":{"addressId":"248","Typ":"Kultur","Wirtschaftseinheit":"Poststr. 16 / Ephraimpalais","PLZ":"10178","Art der Wärmeversorgung":"Fernwärme","Wärmeverbrauch":"204947","Stromverbrauch":"328703","Bemerkung":""},"geometry":{"type":"Point","coordinates":[13.40724,52.51587]}},{"type":"Feature","properties":{"addressId":"249","Typ":"Kultur","Wirtschaftseinheit":"Poststr. 23 / Knoblauchhaus","PLZ":"10178","Art der Wärmeversorgung":"Fernwärme","Wärmeverbrauch":"76103","Stromverbrauch":"29553","Bemerkung":""},"geometry":{"type":"Point","coordinates":[13.40695,52.5164]}},{"type":"Feature","properties":{"addressId":"250","Typ":"Kultur","Wirtschaftseinheit":"Prenzlauer Allee 80","PLZ":"10405","Art der Wärmeversorgung":"Fernwärme","Wärmeverbrauch":"481006","Stromverbrauch":"","Bemerkung":""},"geometry":{"type":"Point","coordinates":[13.42786,52.54303]}},{"type":"Feature","properties":{"addressId":"251","Typ":"Kultur","Wirtschaftseinheit":"Schloßstr. 1 A / Bröhan-Museum","PLZ":"14059","Art der Wärmeversorgung":"Fernwärme","Wärmeverbrauch":"119189","Stromverbrauch":"74581","Bemerkung":""},"geometry":{"type":"Point","coordinates":[13.29533,52.51888]}},{"type":"Feature","properties":{"addressId":"252","Typ":"Kultur","Wirtschaftseinheit":"Schumannstr. 11-14 A / Deutsches Theater","PLZ":"10117","Art der Wärmeversorgung":"Fernwärme","Wärmeverbrauch":"1938620","Stromverbrauch":"2104151","Bemerkung":""},"geometry":{"type":"Point","coordinates":[13.38145,52.52409]}},{"type":"Feature","properties":{"addressId":"253","Typ":"Kultur","Wirtschaftseinheit":"Spandauer Damm 19","PLZ":"14059","Art der Wärmeversorgung":"Fernwärme","Wärmeverbrauch":"0","Stromverbrauch":"24148","Bemerkung":"Wärmeverbrauch liegt nicht vor"},"geometry":{"type":"Point","coordinates":[13.29429,52.51911]}},{"type":"Feature","properties":{"addressId":"254","Typ":"Kultur","Wirtschaftseinheit":"Stresemannstr. 110 / Rosenbeet","PLZ":"10963","Art der Wärmeversorgung":"n/a","Wärmeverbrauch":"0","Stromverbrauch":"234894","Bemerkung":"Wärmeverbrauch liegt nicht vor"},"geometry":{"type":"Point","coordinates":[13.38195,52.5064]}},{"type":"Feature","properties":{"addressId":"255","Typ":"Kultur","Wirtschaftseinheit":"Stresemannstr. 29-31 / Hebbel am Ufer 1","PLZ":"10963","Art der Wärmeversorgung":"Fernwärme","Wärmeverbrauch":"528492","Stromverbrauch":"8154","Bemerkung":""},"geometry":{"type":"Point","coordinates":[13.38729129,52.49997106]}},{"type":"Feature","properties":{"addressId":"256","Typ":"Kultur","Wirtschaftseinheit":"Thulestr. 77-79","PLZ":"13189","Art der Wärmeversorgung":"Gas","Wärmeverbrauch":"516231","Stromverbrauch":"3635","Bemerkung":""},"geometry":{"type":"Point","coordinates":[13.42842,52.55624]}},{"type":"Feature","properties":{"addressId":"257","Typ":"Kultur","Wirtschaftseinheit":"Tiergartenstr. 4","PLZ":"12283","Art der Wärmeversorgung":"n/a","Wärmeverbrauch":"0","Stromverbrauch":"396439","Bemerkung":"Wärmeverbrauch liegt nicht vor"},"geometry":{"type":"Point","coordinates":[13.55995,52.47363]}},{"type":"Feature","properties":{"addressId":"258","Typ":"Kultur","Wirtschaftseinheit":"Trebbiner Str. 8-9","PLZ":"10963","Art der Wärmeversorgung":"Fernwärme","Wärmeverbrauch":"3543363","Stromverbrauch":"1379878","Bemerkung":""},"geometry":{"type":"Point","coordinates":[13.37679,52.49861]}},{"type":"Feature","properties":{"addressId":"259","Typ":"Kultur","Wirtschaftseinheit":"Wrangelstr. 2 / Schlosspark Theater","PLZ":"12165","Art der Wärmeversorgung":"Fernwärme","Wärmeverbrauch":"","Stromverbrauch":"43143","Bemerkung":""},"geometry":{"type":"Point","coordinates":[13.31799,52.4549]}},{"type":"Feature","properties":{"addressId":"260","Typ":"Polizei","Wirtschaftseinheit":"Alemannenstr. 10","PLZ":"14129","Art der Wärmeversorgung":"Gas","Wärmeverbrauch":"579759","Stromverbrauch":"75931","Bemerkung":""},"geometry":{"type":"Point","coordinates":[13.19493,52.4317]}},{"type":"Feature","properties":{"addressId":"261","Typ":"Polizei","Wirtschaftseinheit":"Alt-Biesdorf 33","PLZ":"12683","Art der Wärmeversorgung":"Gas","Wärmeverbrauch":"226506","Stromverbrauch":"5934","Bemerkung":""},"geometry":{"type":"Point","coordinates":[13.56192,52.50827]}},{"type":"Feature","properties":{"addressId":"262","Typ":"Polizei","Wirtschaftseinheit":"Alt-Moabit 145","PLZ":"10557","Art der Wärmeversorgung":"Gas","Wärmeverbrauch":"42672","Stromverbrauch":"221798","Bemerkung":""},"geometry":{"type":"Point","coordinates":[13.36602,52.52208]}},{"type":"Feature","properties":{"addressId":"263","Typ":"Polizei","Wirtschaftseinheit":"Am Nordgraben 6,7,8","PLZ":"13437","Art der Wärmeversorgung":"Fernwärme","Wärmeverbrauch":"1296481","Stromverbrauch":"193277","Bemerkung":""},"geometry":{"type":"Point","coordinates":[13.32584,52.58725]}},{"type":"Feature","properties":{"addressId":"264","Typ":"Polizei","Wirtschaftseinheit":"Augustaplatz 7","PLZ":"12203","Art der Wärmeversorgung":"Fernwärme","Wärmeverbrauch":"1851889","Stromverbrauch":"441912","Bemerkung":""},"geometry":{"type":"Point","coordinates":[13.30637,52.44352]}},{"type":"Feature","properties":{"addressId":"265","Typ":"Polizei","Wirtschaftseinheit":"Baumschulenstr. 1","PLZ":"12437","Art der Wärmeversorgung":"Fernwärme","Wärmeverbrauch":"193489","Stromverbrauch":"244442","Bemerkung":""},"geometry":{"type":"Point","coordinates":[13.49468,52.47136]}},{"type":"Feature","properties":{"addressId":"266","Typ":"Polizei","Wirtschaftseinheit":"Bayernring 44","PLZ":"12101","Art der Wärmeversorgung":"Fernwärme","Wärmeverbrauch":"0","Stromverbrauch":"214538","Bemerkung":"Wärmeverbrauch liegt nicht vor"},"geometry":{"type":"Point","coordinates":[13.38519,52.4815]}},{"type":"Feature","properties":{"addressId":"267","Typ":"Polizei","Wirtschaftseinheit":"Berliner Allee 210","PLZ":"13088","Art der Wärmeversorgung":"Gas","Wärmeverbrauch":"663614","Stromverbrauch":"95214","Bemerkung":""},"geometry":{"type":"Point","coordinates":[13.46711,52.55722]}},{"type":"Feature","properties":{"addressId":"268","Typ":"Polizei","Wirtschaftseinheit":"Berliner Str. 35","PLZ":"13507","Art der Wärmeversorgung":"Fernwärme","Wärmeverbrauch":"","Stromverbrauch":"124983","Bemerkung":""},"geometry":{"type":"Point","coordinates":[13.28906,52.58246]}},{"type":"Feature","properties":{"addressId":"269","Typ":"Polizei","Wirtschaftseinheit":"Bernhard-Weiß-Str. 6","PLZ":"10178","Art der Wärmeversorgung":"Fernwärme","Wärmeverbrauch":"4217825","Stromverbrauch":"1958684","Bemerkung":""},"geometry":{"type":"Point","coordinates":[13.41662,52.52391]}},{"type":"Feature","properties":{"addressId":"270","Typ":"Polizei","Wirtschaftseinheit":"Bismarckstr. 111","PLZ":"10625","Art der Wärmeversorgung":"Fernwärme","Wärmeverbrauch":"419294","Stromverbrauch":"162348","Bemerkung":""},"geometry":{"type":"Point","coordinates":[13.31897,52.51213]}},{"type":"Feature","properties":{"addressId":"271","Typ":"Polizei","Wirtschaftseinheit":"Brunnenstr. 175","PLZ":"10119","Art der Wärmeversorgung":"Gas","Wärmeverbrauch":"360658","Stromverbrauch":"166628","Bemerkung":""},"geometry":{"type":"Point","coordinates":[13.39875,52.53237]}},{"type":"Feature","properties":{"addressId":"272","Typ":"Polizei","Wirtschaftseinheit":"Bulgarische Str. 55","PLZ":"12435","Art der Wärmeversorgung":"Heizöl","Wärmeverbrauch":"","Stromverbrauch":"101837","Bemerkung":""},"geometry":{"type":"Point","coordinates":[13.47394,52.48154]}},{"type":"Feature","properties":{"addressId":"273","Typ":"Polizei","Wirtschaftseinheit":"Cecilienstr. 92","PLZ":"12683","Art der Wärmeversorgung":"Fernwärme","Wärmeverbrauch":"2061683","Stromverbrauch":"780567","Bemerkung":""},"geometry":{"type":"Point","coordinates":[13.56209,52.52907]}},{"type":"Feature","properties":{"addressId":"274","Typ":"Polizei","Wirtschaftseinheit":"Charlottenburger Chaussee 67,75","PLZ":"13597","Art der Wärmeversorgung":"Fernwärme","Wärmeverbrauch":"9392759","Stromverbrauch":"2704477","Bemerkung":""},"geometry":{"type":"Point","coordinates":[13.22828,52.52779]}},{"type":"Feature","properties":{"addressId":"275","Typ":"Polizei","Wirtschaftseinheit":"Friedenstr. 31-32","PLZ":"10249","Art der Wärmeversorgung":"n/a","Wärmeverbrauch":"0","Stromverbrauch":"217768","Bemerkung":"Wärmeverbrauch liegt nicht vor"},"geometry":{"type":"Point","coordinates":[13.434,52.52246]}},{"type":"Feature","properties":{"addressId":"276","Typ":"Polizei","Wirtschaftseinheit":"Friesenstr. 16","PLZ":"10965","Art der Wärmeversorgung":"Gas","Wärmeverbrauch":"4913931","Stromverbrauch":"","Bemerkung":""},"geometry":{"type":"Point","coordinates":[13.39469,52.48585]}},{"type":"Feature","properties":{"addressId":"277","Typ":"Polizei","Wirtschaftseinheit":"Gallwitzallee 87,95","PLZ":"12249","Art der Wärmeversorgung":"Gas","Wärmeverbrauch":"10391731","Stromverbrauch":"551935","Bemerkung":""},"geometry":{"type":"Point","coordinates":[13.34754,52.4278]}},{"type":"Feature","properties":{"addressId":"278","Typ":"Polizei","Wirtschaftseinheit":"Gothaer Str. 19","PLZ":"10823","Art der Wärmeversorgung":"Fernwärme","Wärmeverbrauch":"2167663","Stromverbrauch":"","Bemerkung":""},"geometry":{"type":"Point","coordinates":[13.34724,52.48865]}},{"type":"Feature","properties":{"addressId":"279","Typ":"Polizei","Wirtschaftseinheit":"Götzstr. 6","PLZ":"12099","Art der Wärmeversorgung":"Gas","Wärmeverbrauch":"699221","Stromverbrauch":"418289","Bemerkung":""},"geometry":{"type":"Point","coordinates":[13.38744,52.4645]}},{"type":"Feature","properties":{"addressId":"280","Typ":"Polizei","Wirtschaftseinheit":"Grünauer Str. 140","PLZ":"12557","Art der Wärmeversorgung":"Gas","Wärmeverbrauch":"","Stromverbrauch":"","Bemerkung":""},"geometry":{"type":"Point","coordinates":[13.56913,52.43534]}},{"type":"Feature","properties":{"addressId":"281","Typ":"Polizei","Wirtschaftseinheit":"Hadlichstr. 37","PLZ":"13187","Art der Wärmeversorgung":"Gas","Wärmeverbrauch":"51607","Stromverbrauch":"102816","Bemerkung":""},"geometry":{"type":"Point","coordinates":[13.41506,52.56979]}},{"type":"Feature","properties":{"addressId":"282","Typ":"Polizei","Wirtschaftseinheit":"Hauptstr. 45","PLZ":"10827","Art der Wärmeversorgung":"Fernwärme","Wärmeverbrauch":"576731","Stromverbrauch":"142493","Bemerkung":""},"geometry":{"type":"Point","coordinates":[13.34994,52.48331]}},{"type":"Feature","properties":{"addressId":"283","Typ":"Polizei","Wirtschaftseinheit":"Hauptstr. 8","PLZ":"10317","Art der Wärmeversorgung":"Fernwärme","Wärmeverbrauch":"110203","Stromverbrauch":"193277","Bemerkung":""},"geometry":{"type":"Point","coordinates":[13.48642,52.49621]}},{"type":"Feature","properties":{"addressId":"284","Typ":"Polizei","Wirtschaftseinheit":"Heinrich-Grüber-Str. 35","PLZ":"12621","Art der Wärmeversorgung":"Fernwärme","Wärmeverbrauch":"682618","Stromverbrauch":"191079","Bemerkung":""},"geometry":{"type":"Point","coordinates":[13.59154,52.51492]}},{"type":"Feature","properties":{"addressId":"285","Typ":"Polizei","Wirtschaftseinheit":"Idastr. 6","PLZ":"13156","Art der Wärmeversorgung":"Gas","Wärmeverbrauch":"146485","Stromverbrauch":"26721","Bemerkung":""},"geometry":{"type":"Point","coordinates":[13.41207,52.58386]}},{"type":"Feature","properties":{"addressId":"286","Typ":"Polizei","Wirtschaftseinheit":"Invalidenstr. 57,58","PLZ":"10557","Art der Wärmeversorgung":"Fernwärme","Wärmeverbrauch":"522556","Stromverbrauch":"","Bemerkung":""},"geometry":{"type":"Point","coordinates":[13.36189,52.52386]}},{"type":"Feature","properties":{"addressId":"287","Typ":"Polizei","Wirtschaftseinheit":"Kaiserdamm 1","PLZ":"14057","Art der Wärmeversorgung":"Fernwärme","Wärmeverbrauch":"1516357","Stromverbrauch":"328703","Bemerkung":""},"geometry":{"type":"Point","coordinates":[13.29543,52.5111]}},{"type":"Feature","properties":{"addressId":"288","Typ":"Polizei","Wirtschaftseinheit":"Karlstr. 8","PLZ":"12557","Art der Wärmeversorgung":"Fernwärme","Wärmeverbrauch":"","Stromverbrauch":"109513","Bemerkung":""},"geometry":{"type":"Point","coordinates":[13.57971,52.44241]}},{"type":"Feature","properties":{"addressId":"289","Typ":"Polizei","Wirtschaftseinheit":"Keithstr. 28","PLZ":"10787","Art der Wärmeversorgung":"Fernwärme","Wärmeverbrauch":"1487097","Stromverbrauch":"350327","Bemerkung":""},"geometry":{"type":"Point","coordinates":[13.34672,52.50455]}},{"type":"Feature","properties":{"addressId":"290","Typ":"Polizei","Wirtschaftseinheit":"Koenigsallee 75","PLZ":"14193","Art der Wärmeversorgung":"n/a","Wärmeverbrauch":"","Stromverbrauch":"9572","Bemerkung":""},"geometry":{"type":"Point","coordinates":[13.26185,52.47995]}},{"type":"Feature","properties":{"addressId":"291","Typ":"Polizei","Wirtschaftseinheit":"Königstr. 5","PLZ":"14163","Art der Wärmeversorgung":"Gas","Wärmeverbrauch":"1995928","Stromverbrauch":"188791","Bemerkung":""},"geometry":{"type":"Point","coordinates":[13.2542,52.43433]}},{"type":"Feature","properties":{"addressId":"292","Typ":"Polizei","Wirtschaftseinheit":"Kruppstr. 15","PLZ":"10557","Art der Wärmeversorgung":"Fernwärme","Wärmeverbrauch":"0","Stromverbrauch":"14969","Bemerkung":"Wärmeverbrauch liegt nicht vor"},"geometry":{"type":"Point","coordinates":[13.35569,52.53195]}},{"type":"Feature","properties":{"addressId":"293","Typ":"Polizei","Wirtschaftseinheit":"Kruppstr. 2-4","PLZ":"10557","Art der Wärmeversorgung":"Fernwärme,Öl","Wärmeverbrauch":"9970422","Stromverbrauch":"","Bemerkung":""},"geometry":{"type":"Point","coordinates":[13.35749,52.53303]}},{"type":"Feature","properties":{"addressId":"294","Typ":"Polizei","Wirtschaftseinheit":"Lichtenrader Damm 211","PLZ":"12305","Art der Wärmeversorgung":"Gas","Wärmeverbrauch":"398285","Stromverbrauch":"173553","Bemerkung":""},"geometry":{"type":"Point","coordinates":[13.40732,52.39421]}},{"type":"Feature","properties":{"addressId":"296","Typ":"Polizei","Wirtschaftseinheit":"Magazinstr. 5","PLZ":"10179","Art der Wärmeversorgung":"Fernwärme","Wärmeverbrauch":"1098723","Stromverbrauch":"216459","Bemerkung":""},"geometry":{"type":"Point","coordinates":[13.42015,52.51873]}},{"type":"Feature","properties":{"addressId":"296","Typ":"Polizei","Wirtschaftseinheit":"Marktstr. 13","PLZ":"10317","Art der Wärmeversorgung":"Gas","Wärmeverbrauch":"198235","Stromverbrauch":"44","Bemerkung":""},"geometry":{"type":"Point","coordinates":[13.47243,52.50359]}},{"type":"Feature","properties":{"addressId":"297","Typ":"Polizei","Wirtschaftseinheit":"Mertensstr. 140","PLZ":"13587","Art der Wärmeversorgung":"Gas","Wärmeverbrauch":"725119","Stromverbrauch":"90715","Bemerkung":""},"geometry":{"type":"Point","coordinates":[13.22473,52.56363]}},{"type":"Feature","properties":{"addressId":"298","Typ":"Polizei","Wirtschaftseinheit":"Moritzstr. 10","PLZ":"13597","Art der Wärmeversorgung":"Gas","Wärmeverbrauch":"1289722","Stromverbrauch":"204381","Bemerkung":"Stromverbrauch liegt nicht vor"},"geometry":{"type":"Point","coordinates":[13.19986,52.53916]}},{"type":"Feature","properties":{"addressId":"299","Typ":"Polizei","Wirtschaftseinheit":"Neues Ufer 1","PLZ":"10553","Art der Wärmeversorgung":"Gas","Wärmeverbrauch":"846838","Stromverbrauch":"8154","Bemerkung":""},"geometry":{"type":"Point","coordinates":[13.31751,52.52205]}},{"type":"Feature","properties":{"addressId":"300","Typ":"Polizei","Wirtschaftseinheit":"Nipkowstr. 23","PLZ":"12489","Art der Wärmeversorgung":"Gas","Wärmeverbrauch":"195974","Stromverbrauch":"44415","Bemerkung":""},"geometry":{"type":"Point","coordinates":[13.55012,52.43667]}},{"type":"Feature","properties":{"addressId":"301","Typ":"Polizei","Wirtschaftseinheit":"Nöldnerstr. 35","PLZ":"10317","Art der Wärmeversorgung":"Fernwärme","Wärmeverbrauch":"401393","Stromverbrauch":"0","Bemerkung":"Stromverbrauch liegt nicht vor"},"geometry":{"type":"Point","coordinates":[13.48453,52.50201]}},{"type":"Feature","properties":{"addressId":"302","Typ":"Polizei","Wirtschaftseinheit":"Pablo-Picasso-Str. 4","PLZ":"13057","Art der Wärmeversorgung":"Fernwärme","Wärmeverbrauch":"984462","Stromverbrauch":"173553","Bemerkung":""},"geometry":{"type":"Point","coordinates":[13.51573,52.56622]}},{"type":"Feature","properties":{"addressId":"303","Typ":"Polizei","Wirtschaftseinheit":"Pankstr. 28","PLZ":"13357","Art der Wärmeversorgung":"Fernwärme","Wärmeverbrauch":"1584477","Stromverbrauch":"715945","Bemerkung":""},"geometry":{"type":"Point","coordinates":[13.37516,52.54811]}},{"type":"Feature","properties":{"addressId":"304","Typ":"Polizei","Wirtschaftseinheit":"Pionierstr. 160,204","PLZ":"13589","Art der Wärmeversorgung":"Gas","Wärmeverbrauch":"162562","Stromverbrauch":"7453","Bemerkung":""},"geometry":{"type":"Point","coordinates":[13.16598,52.55642]}},{"type":"Feature","properties":{"addressId":"305","Typ":"Polizei","Wirtschaftseinheit":"Poelchaustr. 1","PLZ":"12681","Art der Wärmeversorgung":"Fernwärme","Wärmeverbrauch":"906811","Stromverbrauch":"422749","Bemerkung":""},"geometry":{"type":"Point","coordinates":[13.53864,52.53489]}},{"type":"Feature","properties":{"addressId":"306","Typ":"Polizei","Wirtschaftseinheit":"Radelandstr. 21","PLZ":"13589","Art der Wärmeversorgung":"Gas","Wärmeverbrauch":"9103436","Stromverbrauch":"40622","Bemerkung":""},"geometry":{"type":"Point","coordinates":[13.19204,52.55553]}},{"type":"Feature","properties":{"addressId":"307","Typ":"Polizei","Wirtschaftseinheit":"Rudolstädter Str. 79,85","PLZ":"10713","Art der Wärmeversorgung":"Fernwärme","Wärmeverbrauch":"1040394","Stromverbrauch":"277471","Bemerkung":""},"geometry":{"type":"Point","coordinates":[13.30553,52.48557]}},{"type":"Feature","properties":{"addressId":"308","Typ":"Polizei","Wirtschaftseinheit":"Ruppiner Chaussee 240,268","PLZ":"13503","Art der Wärmeversorgung":"Gas","Wärmeverbrauch":"14243949","Stromverbrauch":"1288485","Bemerkung":""},"geometry":{"type":"Point","coordinates":[13.24473,52.61546]}},{"type":"Feature","properties":{"addressId":"309","Typ":"Polizei","Wirtschaftseinheit":"Schmidt-Knobelsdorf-Str. 27","PLZ":"13581","Art der Wärmeversorgung":"Fernwärme","Wärmeverbrauch":"267501","Stromverbrauch":"100921","Bemerkung":""},"geometry":{"type":"Point","coordinates":[13.18796,52.52222]}},{"type":"Feature","properties":{"addressId":"310","Typ":"Polizei","Wirtschaftseinheit":"Segelfliegerdamm 42","PLZ":"12487","Art der Wärmeversorgung":"Fernwärme","Wärmeverbrauch":"35993","Stromverbrauch":"48097","Bemerkung":""},"geometry":{"type":"Point","coordinates":[13.50872,52.44341]}},{"type":"Feature","properties":{"addressId":"311","Typ":"Polizei","Wirtschaftseinheit":"Sewanstr. 262","PLZ":"10319","Art der Wärmeversorgung":"Fernwärme","Wärmeverbrauch":"325003","Stromverbrauch":"7635","Bemerkung":""},"geometry":{"type":"Point","coordinates":[13.51921,52.49438]}},{"type":"Feature","properties":{"addressId":"312","Typ":"Polizei","Wirtschaftseinheit":"Sonnenallee 107","PLZ":"12045","Art der Wärmeversorgung":"Fernwärme","Wärmeverbrauch":"","Stromverbrauch":"135605","Bemerkung":""},"geometry":{"type":"Point","coordinates":[13.44064,52.48165]}},{"type":"Feature","properties":{"addressId":"313","Typ":"Polizei","Wirtschaftseinheit":"Tempelhofer Damm 12","PLZ":"12101","Art der Wärmeversorgung":"Fernwärme","Wärmeverbrauch":"","Stromverbrauch":"3668537","Bemerkung":""},"geometry":{"type":"Point","coordinates":[13.38554,52.48223]}},{"type":"Feature","properties":{"addressId":"314","Typ":"Polizei","Wirtschaftseinheit":"Thomas-Dehler-Str. 4","PLZ":"10787","Art der Wärmeversorgung":"Fernwärme","Wärmeverbrauch":"","Stromverbrauch":"54149","Bemerkung":""},"geometry":{"type":"Point","coordinates":[13.34788,52.50984]}},{"type":"Feature","properties":{"addressId":"315","Typ":"Polizei","Wirtschaftseinheit":"Wackenbergstr. 81","PLZ":"13156","Art der Wärmeversorgung":"Gas","Wärmeverbrauch":"4142","Stromverbrauch":"4486","Bemerkung":""},"geometry":{"type":"Point","coordinates":[13.41816,52.5876]}},{"type":"Feature","properties":{"addressId":"316","Typ":"Polizei","Wirtschaftseinheit":"Wedekindstr. 10","PLZ":"10243","Art der Wärmeversorgung":"Fernwärme","Wärmeverbrauch":"1878980","Stromverbrauch":"250632","Bemerkung":""},"geometry":{"type":"Point","coordinates":[13.44476,52.5123]}},{"type":"Feature","properties":{"addressId":"317","Typ":"Polizei","Wirtschaftseinheit":"Zwickauer Damm 58","PLZ":"12353","Art der Wärmeversorgung":"Gas","Wärmeverbrauch":"419257","Stromverbrauch":"85364","Bemerkung":""},"geometry":{"type":"Point","coordinates":[13.47768,52.41939]}},{"type":"Feature","properties":{"addressId":"318","Typ":"Schulen","Wirtschaftseinheit":"Albrechtstr. 27","PLZ":"10117","Art der Wärmeversorgung":"Fernwärme","Wärmeverbrauch":"101647","Stromverbrauch":"0","Bemerkung":""},"geometry":{"type":"Point","coordinates":[13.3834,52.52406]}},{"type":"Feature","properties":{"addressId":"319","Typ":"Schulen","Wirtschaftseinheit":"Allee der Kosmonauten 18","PLZ":"10315","Art der Wärmeversorgung":"Fernwärme","Wärmeverbrauch":"804814","Stromverbrauch":"181215","Bemerkung":""},"geometry":{"type":"Point","coordinates":[13.51273,52.52345]}},{"type":"Feature","properties":{"addressId":"320","Typ":"Schulen","Wirtschaftseinheit":"Alt-Moabit 10","PLZ":"10557","Art der Wärmeversorgung":"Fernwärme","Wärmeverbrauch":"1320896","Stromverbrauch":"433066","Bemerkung":""},"geometry":{"type":"Point","coordinates":[13.35787,52.52391]}},{"type":"Feature","properties":{"addressId":"321","Typ":"Schulen","Wirtschaftseinheit":"Alt-Stralau 40-41","PLZ":"10245","Art der Wärmeversorgung":"Fernwärme","Wärmeverbrauch":"356871","Stromverbrauch":"13665","Bemerkung":""},"geometry":{"type":"Point","coordinates":[13.47384,52.49334]}},{"type":"Feature","properties":{"addressId":"322","Typ":"Schulen","Wirtschaftseinheit":"Am Fort 48 D","PLZ":"13591","Art der Wärmeversorgung":"Gas","Wärmeverbrauch":"218435","Stromverbrauch":"277471","Bemerkung":""},"geometry":{"type":"Point","coordinates":[13.13608,52.52395]}},{"type":"Feature","properties":{"addressId":"323","Typ":"Schulen","Wirtschaftseinheit":"Birkenstr. 11","PLZ":"12559","Art der Wärmeversorgung":"Gas","Wärmeverbrauch":"1102944","Stromverbrauch":"197527","Bemerkung":""},"geometry":{"type":"Point","coordinates":[13.60234,52.44659]}},{"type":"Feature","properties":{"addressId":"324","Typ":"Schulen","Wirtschaftseinheit":"Bismarckstr. 20","PLZ":"10625","Art der Wärmeversorgung":"Fernwärme","Wärmeverbrauch":"1352021","Stromverbrauch":"194627","Bemerkung":""},"geometry":{"type":"Point","coordinates":[13.31314,52.51239]}},{"type":"Feature","properties":{"addressId":"325","Typ":"Schulen","Wirtschaftseinheit":"Bochumer Str. 8","PLZ":"10555","Art der Wärmeversorgung":"Fernwärme","Wärmeverbrauch":"1415795","Stromverbrauch":"244442","Bemerkung":""},"geometry":{"type":"Point","coordinates":[13.33793,52.52311]}},{"type":"Feature","properties":{"addressId":"326","Typ":"Schulen","Wirtschaftseinheit":"Buschallee 23a","PLZ":"13088","Art der Wärmeversorgung":"Fernwärme,Gas","Wärmeverbrauch":"1798821","Stromverbrauch":"632635","Bemerkung":""},"geometry":{"type":"Point","coordinates":[13.47572,52.55287]}},{"type":"Feature","properties":{"addressId":"327","Typ":"Schulen","Wirtschaftseinheit":"Cyclopstr. 1-7","PLZ":"13469","Art der Wärmeversorgung":"Fernwärme","Wärmeverbrauch":"3635830","Stromverbrauch":"","Bemerkung":""},"geometry":{"type":"Point","coordinates":[13.3273,52.59952]}},{"type":"Feature","properties":{"addressId":"328","Typ":"Schulen","Wirtschaftseinheit":"Dammweg 216","PLZ":"12057","Art der Wärmeversorgung":"Fernwärme","Wärmeverbrauch":"","Stromverbrauch":"29649","Bemerkung":""},"geometry":{"type":"Point","coordinates":[13.46799,52.47236]}},{"type":"Feature","properties":{"addressId":"329","Typ":"Schulen","Wirtschaftseinheit":"Danckelmannstr. 25-28","PLZ":"14059","Art der Wärmeversorgung":"Fernwärme","Wärmeverbrauch":"1486870","Stromverbrauch":"219151","Bemerkung":""},"geometry":{"type":"Point","coordinates":[13.29117,52.51201]}},{"type":"Feature","properties":{"addressId":"330","Typ":"Schulen","Wirtschaftseinheit":"Darßer Str. 97","PLZ":"13051","Art der Wärmeversorgung":"Fernwärme","Wärmeverbrauch":"1193892","Stromverbrauch":"211411","Bemerkung":""},"geometry":{"type":"Point","coordinates":[13.49357,52.56474]}},{"type":"Feature","properties":{"addressId":"331","Typ":"Schulen","Wirtschaftseinheit":"Derfflinger Str. 7,8","PLZ":"10785","Art der Wärmeversorgung":"Gas","Wärmeverbrauch":"1904460","Stromverbrauch":"25078","Bemerkung":""},"geometry":{"type":"Point","coordinates":[13.3555,52.50327]}},{"type":"Feature","properties":{"addressId":"332","Typ":"Schulen","Wirtschaftseinheit":"Driesener Str. 22","PLZ":"10439","Art der Wärmeversorgung":"Gas","Wärmeverbrauch":"1181745","Stromverbrauch":"164341","Bemerkung":""},"geometry":{"type":"Point","coordinates":[13.40567,52.55201]}},{"type":"Feature","properties":{"addressId":"333","Typ":"Schulen","Wirtschaftseinheit":"Dudenstr. 35-37","PLZ":"10965","Art der Wärmeversorgung":"Gas","Wärmeverbrauch":"1661838","Stromverbrauch":"281725","Bemerkung":""},"geometry":{"type":"Point","coordinates":[13.38028,52.48468]}},{"type":"Feature","properties":{"addressId":"334","Typ":"Schulen","Wirtschaftseinheit":"Erbeskopfweg 6-10","PLZ":"13158","Art der Wärmeversorgung":"Gas","Wärmeverbrauch":"301712","Stromverbrauch":"49862","Bemerkung":""},"geometry":{"type":"Point","coordinates":[13.40037,52.59351]}},{"type":"Feature","properties":{"addressId":"335","Typ":"Schulen","Wirtschaftseinheit":"Erich-Weinert-Str. 103","PLZ":"10409","Art der Wärmeversorgung":"Fernwärme","Wärmeverbrauch":"1509691","Stromverbrauch":"265292","Bemerkung":""},"geometry":{"type":"Point","coordinates":[13.43586,52.54595]}},{"type":"Feature","properties":{"addressId":"336","Typ":"Schulen","Wirtschaftseinheit":"Fischerstr. 32","PLZ":"10317","Art der Wärmeversorgung":"Fernwärme","Wärmeverbrauch":"2164317","Stromverbrauch":"12709","Bemerkung":""},"geometry":{"type":"Point","coordinates":[13.48943,52.49897]}},{"type":"Feature","properties":{"addressId":"337","Typ":"Schulen","Wirtschaftseinheit":"Fischerstr. 36","PLZ":"10317","Art der Wärmeversorgung":"Fernwärme/Gas","Wärmeverbrauch":"2235747","Stromverbrauch":"","Bemerkung":""},"geometry":{"type":"Point","coordinates":[13.48703,52.5011]}},{"type":"Feature","properties":{"addressId":"338","Typ":"Schulen","Wirtschaftseinheit":"Florastr. 13","PLZ":"12163","Art der Wärmeversorgung":"Gas","Wärmeverbrauch":"370324","Stromverbrauch":"30624","Bemerkung":""},"geometry":{"type":"Point","coordinates":[13.32873,52.46176]}},{"type":"Feature","properties":{"addressId":"339","Typ":"Schulen","Wirtschaftseinheit":"Fritz-Lesch-Str. 35","PLZ":"13053","Art der Wärmeversorgung":"Fernwärme,Gas","Wärmeverbrauch":"1782239","Stromverbrauch":"","Bemerkung":""},"geometry":{"type":"Point","coordinates":[13.47601,52.54557]}},{"type":"Feature","properties":{"addressId":"340","Typ":"Schulen","Wirtschaftseinheit":"Gierkeplatz 1,3","PLZ":"10585","Art der Wärmeversorgung":"Fernwärme","Wärmeverbrauch":"1145384","Stromverbrauch":"","Bemerkung":""},"geometry":{"type":"Point","coordinates":[13.30203,52.51683]}},{"type":"Feature","properties":{"addressId":"341","Typ":"Schulen","Wirtschaftseinheit":"Goldbeckweg 8-14","PLZ":"13599","Art der Wärmeversorgung":"Gas","Wärmeverbrauch":"3215481","Stromverbrauch":"482992","Bemerkung":""},"geometry":{"type":"Point","coordinates":[13.23022,52.54363]}},{"type":"Feature","properties":{"addressId":"342","Typ":"Schulen","Wirtschaftseinheit":"Goltzstr. 43-44","PLZ":"10781","Art der Wärmeversorgung":"Gas","Wärmeverbrauch":"111262","Stromverbrauch":"14595","Bemerkung":""},"geometry":{"type":"Point","coordinates":[13.35303,52.49144]}},{"type":"Feature","properties":{"addressId":"343","Typ":"Schulen","Wirtschaftseinheit":"Gustav-Adolf-Str. 66","PLZ":"13086","Art der Wärmeversorgung":"Fernwärme","Wärmeverbrauch":"1959548","Stromverbrauch":"769923","Bemerkung":""},"geometry":{"type":"Point","coordinates":[13.44837,52.5594]}},{"type":"Feature","properties":{"addressId":"344","Typ":"Schulen","Wirtschaftseinheit":"Haarlemer Str. 27","PLZ":"12359","Art der Wärmeversorgung":"Gas","Wärmeverbrauch":"2449430","Stromverbrauch":"","Bemerkung":""},"geometry":{"type":"Point","coordinates":[13.45274,52.45768]}},{"type":"Feature","properties":{"addressId":"345","Typ":"Schulen","Wirtschaftseinheit":"Halemweg 24","PLZ":"13627","Art der Wärmeversorgung":"Fernwärme","Wärmeverbrauch":"1968100","Stromverbrauch":"441246","Bemerkung":""},"geometry":{"type":"Point","coordinates":[13.28804,52.53835]}},{"type":"Feature","properties":{"addressId":"346","Typ":"Schulen","Wirtschaftseinheit":"Hartmannsweilerweg 29","PLZ":"14163","Art der Wärmeversorgung":"Gas","Wärmeverbrauch":"937585","Stromverbrauch":"89661","Bemerkung":""},"geometry":{"type":"Point","coordinates":[13.24888,52.44195]}},{"type":"Feature","properties":{"addressId":"347","Typ":"Schulen","Wirtschaftseinheit":"Helmholtzstr. 37","PLZ":"12459","Art der Wärmeversorgung":"Fernwärme","Wärmeverbrauch":"1000369","Stromverbrauch":"","Bemerkung":""},"geometry":{"type":"Point","coordinates":[13.50697,52.46632]}},{"type":"Feature","properties":{"addressId":"348","Typ":"Schulen","Wirtschaftseinheit":"Hermann-Hesse-Str. 34,36","PLZ":"13156","Art der Wärmeversorgung":"Gas","Wärmeverbrauch":"1031523","Stromverbrauch":"533","Bemerkung":""},"geometry":{"type":"Point","coordinates":[13.39581,52.57932]}},{"type":"Feature","properties":{"addressId":"349","Typ":"Schulen","Wirtschaftseinheit":"Immenweg 6-10","PLZ":"12169","Art der Wärmeversorgung":"Fernwärme","Wärmeverbrauch":"3975504","Stromverbrauch":"1135474","Bemerkung":""},"geometry":{"type":"Point","coordinates":[13.34578,52.45205]}},{"type":"Feature","properties":{"addressId":"350","Typ":"Schulen","Wirtschaftseinheit":"Klixstr. 6-7","PLZ":"10823","Art der Wärmeversorgung":"Gas","Wärmeverbrauch":"528382","Stromverbrauch":"105624","Bemerkung":""},"geometry":{"type":"Point","coordinates":[13.35169,52.48874]}},{"type":"Feature","properties":{"addressId":"351","Typ":"Schulen","Wirtschaftseinheit":"Kniprodestr. 27","PLZ":"10407","Art der Wärmeversorgung":"Gas","Wärmeverbrauch":"","Stromverbrauch":"98564","Bemerkung":""},"geometry":{"type":"Point","coordinates":[13.44709,52.53526]}},{"type":"Feature","properties":{"addressId":"352","Typ":"Schulen","Wirtschaftseinheit":"Kochstr. 9","PLZ":"10969","Art der Wärmeversorgung":"Fernwärme","Wärmeverbrauch":"577191","Stromverbrauch":"3114","Bemerkung":""},"geometry":{"type":"Point","coordinates":[13.38869,52.50595]}},{"type":"Feature","properties":{"addressId":"353","Typ":"Schulen","Wirtschaftseinheit":"Kühleweinstr. 5","PLZ":"13409","Art der Wärmeversorgung":"Gas","Wärmeverbrauch":"3585943","Stromverbrauch":"1213347","Bemerkung":""},"geometry":{"type":"Point","coordinates":[13.37067,52.56204]}},{"type":"Feature","properties":{"addressId":"354","Typ":"Schulen","Wirtschaftseinheit":"Leinestr. 37-45","PLZ":"12049","Art der Wärmeversorgung":"Fernwärme","Wärmeverbrauch":"","Stromverbrauch":"132169","Bemerkung":""},"geometry":{"type":"Point","coordinates":[13.42346,52.47263]}},{"type":"Feature","properties":{"addressId":"355","Typ":"Schulen","Wirtschaftseinheit":"Levetzowstr. 3,5","PLZ":"10555","Art der Wärmeversorgung":"Gas","Wärmeverbrauch":"1233378","Stromverbrauch":"","Bemerkung":""},"geometry":{"type":"Point","coordinates":[13.3317,52.52186]}},{"type":"Feature","properties":{"addressId":"356","Typ":"Schulen","Wirtschaftseinheit":"Lippstädter Str. 9-11","PLZ":"12207","Art der Wärmeversorgung":"Gas","Wärmeverbrauch":"1878352","Stromverbrauch":"304686","Bemerkung":""},"geometry":{"type":"Point","coordinates":[13.30557,52.41139]}},{"type":"Feature","properties":{"addressId":"357","Typ":"Schulen","Wirtschaftseinheit":"Lipschitzallee 25","PLZ":"12351","Art der Wärmeversorgung":"Fernwärme","Wärmeverbrauch":"1878352","Stromverbrauch":"14954","Bemerkung":""},"geometry":{"type":"Point","coordinates":[13.47306,52.42974]}},{"type":"Feature","properties":{"addressId":"358","Typ":"Schulen","Wirtschaftseinheit":"Lobeckstr. 76","PLZ":"10969","Art der Wärmeversorgung":"Fernwärme,Gas","Wärmeverbrauch":"2303229","Stromverbrauch":"","Bemerkung":""},"geometry":{"type":"Point","coordinates":[13.40319,52.49911]}},{"type":"Feature","properties":{"addressId":"359","Typ":"Schulen","Wirtschaftseinheit":"Loschmidtstr. 19","PLZ":"10587","Art der Wärmeversorgung":"Fernwärme","Wärmeverbrauch":"573236","Stromverbrauch":"77845","Bemerkung":""},"geometry":{"type":"Point","coordinates":[13.31295,52.51734]}},{"type":"Feature","properties":{"addressId":"360","Typ":"Schulen","Wirtschaftseinheit":"Mandelstr. 6-8","PLZ":"10409","Art der Wärmeversorgung":"Fernwärme","Wärmeverbrauch":"804536","Stromverbrauch":"632635","Bemerkung":""},"geometry":{"type":"Point","coordinates":[13.44136,52.54571]}},{"type":"Feature","properties":{"addressId":"361","Typ":"Schulen","Wirtschaftseinheit":"Marktstr. 2-3","PLZ":"10317","Art der Wärmeversorgung":"Gas","Wärmeverbrauch":"412253","Stromverbrauch":"114616","Bemerkung":""},"geometry":{"type":"Point","coordinates":[13.47485,52.50294]}},{"type":"Feature","properties":{"addressId":"362","Typ":"Schulen","Wirtschaftseinheit":"Marzahner Chaussee 231","PLZ":"12681","Art der Wärmeversorgung":"Fernwärme","Wärmeverbrauch":"927627","Stromverbrauch":"111035","Bemerkung":""},"geometry":{"type":"Point","coordinates":[13.53317,52.53028]}},{"type":"Feature","properties":{"addressId":"363","Typ":"Schulen","Wirtschaftseinheit":"Naglerstr. 1-3","PLZ":"10245","Art der Wärmeversorgung":"Fernwärme","Wärmeverbrauch":"540566","Stromverbrauch":"14174","Bemerkung":""},"geometry":{"type":"Point","coordinates":[13.4496,52.50223]}},{"type":"Feature","properties":{"addressId":"364","Typ":"Schulen","Wirtschaftseinheit":"Nauener Str. 13 (ehm. Altonaer Str. 104)","PLZ":"13581","Art der Wärmeversorgung":"Heizöl","Wärmeverbrauch":"","Stromverbrauch":"7788","Bemerkung":""},"geometry":{"type":"Point","coordinates":[13.18144,52.53367]}},{"type":"Feature","properties":{"addressId":"365","Typ":"Schulen","Wirtschaftseinheit":"Niederwallstr. 6,7","PLZ":"10117","Art der Wärmeversorgung":"Fernwärme","Wärmeverbrauch":"295273","Stromverbrauch":"","Bemerkung":""},"geometry":{"type":"Point","coordinates":[13.39829,52.51266]}},{"type":"Feature","properties":{"addressId":"366","Typ":"Schulen","Wirtschaftseinheit":"Nonnendammallee 140-143","PLZ":"13599","Art der Wärmeversorgung":"Fernwärme","Wärmeverbrauch":"3652947","Stromverbrauch":"896114","Bemerkung":""},"geometry":{"type":"Point","coordinates":[13.24308,52.5391]}},{"type":"Feature","properties":{"addressId":"367","Typ":"Schulen","Wirtschaftseinheit":"Oschatzer Ring 13","PLZ":"12627","Art der Wärmeversorgung":"Fernwärme","Wärmeverbrauch":"45114","Stromverbrauch":"6482","Bemerkung":""},"geometry":{"type":"Point","coordinates":[13.61434,52.54178]}},{"type":"Feature","properties":{"addressId":"368","Typ":"Schulen","Wirtschaftseinheit":"Osloer Str. 23-26","PLZ":"13359","Art der Wärmeversorgung":"Gas","Wärmeverbrauch":"1869406","Stromverbrauch":"","Bemerkung":""},"geometry":{"type":"Point","coordinates":[13.38029,52.5572]}},{"type":"Feature","properties":{"addressId":"369","Typ":"Schulen","Wirtschaftseinheit":"Ostpreußendamm 40","PLZ":"12207","Art der Wärmeversorgung":"Gas","Wärmeverbrauch":"666232","Stromverbrauch":"95975","Bemerkung":""},"geometry":{"type":"Point","coordinates":[13.31704,52.4303]}},{"type":"Feature","properties":{"addressId":"370","Typ":"Schulen","Wirtschaftseinheit":"Pappelallee 30-31","PLZ":"10437","Art der Wärmeversorgung":"Gas","Wärmeverbrauch":"42587","Stromverbrauch":"196466","Bemerkung":""},"geometry":{"type":"Point","coordinates":[13.4174,52.5454]}},{"type":"Feature","properties":{"addressId":"371","Typ":"Schulen","Wirtschaftseinheit":"Persiusstr. 7-9","PLZ":"10245","Art der Wärmeversorgung":"Fernwärme","Wärmeverbrauch":"363582","Stromverbrauch":"1515","Bemerkung":""},"geometry":{"type":"Point","coordinates":[13.46221,52.50121]}},{"type":"Feature","properties":{"addressId":"372","Typ":"Schulen","Wirtschaftseinheit":"Peter-Weiss-Gasse 8","PLZ":"12627","Art der Wärmeversorgung":"Fernwärme","Wärmeverbrauch":"68494","Stromverbrauch":"136254","Bemerkung":""},"geometry":{"type":"Point","coordinates":[13.60789,52.53859]}},{"type":"Feature","properties":{"addressId":"373","Typ":"Schulen","Wirtschaftseinheit":"Pfalzburger Str. 22,23","PLZ":"10719","Art der Wärmeversorgung":"Fernwärme","Wärmeverbrauch":"615544","Stromverbrauch":"73883","Bemerkung":""},"geometry":{"type":"Point","coordinates":[13.32174,52.49385]}},{"type":"Feature","properties":{"addressId":"374","Typ":"Schulen","Wirtschaftseinheit":"Pfalzburger Str. 30","PLZ":"10717","Art der Wärmeversorgung":"Fernwärme","Wärmeverbrauch":"78206","Stromverbrauch":"123303","Bemerkung":""},"geometry":{"type":"Point","coordinates":[13.32107,52.49094]}},{"type":"Feature","properties":{"addressId":"375","Typ":"Schulen","Wirtschaftseinheit":"Prinzregentenstr. 32,35","PLZ":"10715","Art der Wärmeversorgung":"Fernwärme","Wärmeverbrauch":"776506","Stromverbrauch":"125406","Bemerkung":""},"geometry":{"type":"Point","coordinates":[13.33293,52.48364]}},{"type":"Feature","properties":{"addressId":"376","Typ":"Schulen","Wirtschaftseinheit":"Prinzregentenstr. 60","PLZ":"10715","Art der Wärmeversorgung":"Fernwärme","Wärmeverbrauch":"1692126","Stromverbrauch":"250214","Bemerkung":""},"geometry":{"type":"Point","coordinates":[13.3335,52.48237]}},{"type":"Feature","properties":{"addressId":"377","Typ":"Schulen","Wirtschaftseinheit":"Rheinsberger Str. 4-5","PLZ":"10115","Art der Wärmeversorgung":"Gas","Wärmeverbrauch":"533651","Stromverbrauch":"268632","Bemerkung":""},"geometry":{"type":"Point","coordinates":[13.3956,52.53664]}},{"type":"Feature","properties":{"addressId":"378","Typ":"Schulen","Wirtschaftseinheit":"Rudower Str. 184","PLZ":"12351","Art der Wärmeversorgung":"Gas","Wärmeverbrauch":"912237","Stromverbrauch":"114996","Bemerkung":""},"geometry":{"type":"Point","coordinates":[13.47512,52.43021]}},{"type":"Feature","properties":{"addressId":"379","Typ":"Schulen","Wirtschaftseinheit":"Scharfenberg (Insel)","PLZ":"13505","Art der Wärmeversorgung":"Gas","Wärmeverbrauch":"","Stromverbrauch":"","Bemerkung":""},"geometry":{"type":"Point","coordinates":[13.24690145,52.57410782]}},{"type":"Feature","properties":{"addressId":"380","Typ":"Schulen","Wirtschaftseinheit":"Schillerstr. 120","PLZ":"10625","Art der Wärmeversorgung":"Fernwärme","Wärmeverbrauch":"790784","Stromverbrauch":"279093","Bemerkung":""},"geometry":{"type":"Point","coordinates":[13.31875,52.51076]}},{"type":"Feature","properties":{"addressId":"381","Typ":"Schulen","Wirtschaftseinheit":"Schwyzer Str. 6-8","PLZ":"13349","Art der Wärmeversorgung":"Fernwärme","Wärmeverbrauch":"1528193","Stromverbrauch":"","Bemerkung":""},"geometry":{"type":"Point","coordinates":[13.35344,52.55765]}},{"type":"Feature","properties":{"addressId":"382","Typ":"Schulen","Wirtschaftseinheit":"Steinmetzstr. 79","PLZ":"10783","Art der Wärmeversorgung":"Fernwärme","Wärmeverbrauch":"576745","Stromverbrauch":"111035","Bemerkung":""},"geometry":{"type":"Point","coordinates":[13.36466,52.49897]}},{"type":"Feature","properties":{"addressId":"383","Typ":"Schulen","Wirtschaftseinheit":"Straßmannstr. 14-16","PLZ":"10249","Art der Wärmeversorgung":"Fernwärme","Wärmeverbrauch":"1054543","Stromverbrauch":"0","Bemerkung":"Stromverbrauch liegt nicht vor"},"geometry":{"type":"Point","coordinates":[13.4485,52.52166]}},{"type":"Feature","properties":{"addressId":"384","Typ":"Schulen","Wirtschaftseinheit":"Teltower Damm 87-101 (ungerade)","PLZ":"14167","Art der Wärmeversorgung":"Gas","Wärmeverbrauch":"7315474","Stromverbrauch":"1077075","Bemerkung":""},"geometry":{"type":"Point","coordinates":[13.26191,52.42575]}},{"type":"Feature","properties":{"addressId":"385","Typ":"Schulen","Wirtschaftseinheit":"Wollenbergerstr. 1","PLZ":"13053","Art der Wärmeversorgung":"Fernwärme","Wärmeverbrauch":"0","Stromverbrauch":"0","Bemerkung":"Wärme- und Stromverbrauch liegt nicht vor"},"geometry":{"type":"Point","coordinates":[13.511,52.54677]}},{"type":"Feature","properties":{"addressId":"386","Typ":"Schulen","Wirtschaftseinheit":"Wrangelstr. 98","PLZ":"10997","Art der Wärmeversorgung":"Fernwärme,Gas","Wärmeverbrauch":"3666158","Stromverbrauch":"548965","Bemerkung":""},"geometry":{"type":"Point","coordinates":[13.43659,52.50096]}}]}